{"type":"FeatureCollection","name":"ne_10m_land_toulon","bbox":[0,38,14,47],"features":[{"type":"Feature","properties":{"featurecla":"Land","scalerank":0,"min_zoom":0},"geometry":{"type":"MultiPolygon","coordinates":[[[[14,47],[14,38],[14,38],[14,44.903118557036365],[13.988455,44.900784],[13.972667,44.901109],[13.980724,44.896552],[13.98585,44.892076],[13.993012,44.881293],[13.986176,44.881293],[13.986176,44.875067],[13.993012,44.875067],[13.993012,44.867621],[13.98585,44.864163],[13.981293,44.859809],[13.972667,44.847154],[13.97462,44.839667],[13.976329,44.83747],[13.976248,44.834906],[13.972667,44.826646],[13.983246,44.827053],[13.989431,44.8251],[13.993988,44.820502],[14,44.813069598870996],[14,44.81305562828993],[13.963878,44.811835],[13.9463,44.813788],[13.931651,44.820502],[13.929698,44.816352],[13.929535,44.815253],[13.924815,44.813056],[13.918712,44.829047],[13.909679,44.830959],[13.899587,44.829047],[13.890147,44.833482],[13.883149,44.826646],[13.893891,44.823391],[13.904307,44.817288],[13.909353,44.808987],[13.90447,44.798774],[13.913422,44.782416],[13.917979,44.778266],[13.903168,44.772406],[13.899425,44.781968],[13.89975,44.798285],[13.896983,44.813056],[13.889659,44.817084],[13.860037,44.82567],[13.849132,44.826646],[13.851248,44.830024],[13.853852,44.837063],[13.855968,44.840277],[13.852794,44.840766],[13.845551,44.840155],[13.842296,44.840277],[13.849132,44.847154],[13.842296,44.854641],[13.831391,44.852729],[13.815684,44.856594],[13.799327,44.864569],[13.78712,44.875067],[13.794607,44.881293],[13.804861,44.870592],[13.819591,44.867662],[13.833751,44.873358],[13.842296,44.888129],[13.815278,44.883531],[13.804861,44.885403],[13.794607,44.894965],[13.794607,44.901109],[13.798676,44.903957],[13.803477,44.910631],[13.808116,44.915432],[13.796723,44.924872],[13.774099,44.963813],[13.732758,44.99494],[13.681326,45.046373],[13.67335,45.051093],[13.660818,45.061225],[13.643809,45.070502],[13.62322,45.073065],[13.627696,45.079413],[13.633067,45.089423],[13.636892,45.093573],[13.612559,45.117865],[13.63852,45.130032],[13.726248,45.134508],[13.706716,45.141099],[13.683604,45.143378],[13.636892,45.142035],[13.61199,45.136786],[13.600597,45.137274],[13.595958,45.145413],[13.597911,45.155951],[13.600597,45.164618],[13.599376,45.171291],[13.589122,45.175482],[13.593761,45.182278],[13.594412,45.187323],[13.590587,45.191799],[13.582286,45.196601],[13.582286,45.202826],[13.590505,45.206488],[13.594493,45.212633],[13.594249,45.220771],[13.589122,45.230699],[13.595714,45.240546],[13.595225,45.2508],[13.588227,45.259589],[13.57545,45.264879],[13.578787,45.270982],[13.584239,45.276068],[13.592052,45.27912],[13.602712,45.27912],[13.602712,45.285346],[13.59254,45.288804],[13.584646,45.293199],[13.578949,45.299018],[13.57545,45.306464],[13.585704,45.307807],[13.594493,45.311103],[13.609548,45.320136],[13.597911,45.324368],[13.571056,45.325019],[13.561778,45.326361],[13.550629,45.334296],[13.54127,45.346137],[13.540538,45.356757],[13.554942,45.36107],[13.554942,45.367336],[13.543142,45.376166],[13.513357,45.436225],[13.515391,45.438137],[13.518565,45.440334],[13.520763,45.44302],[13.515961,45.447455],[13.515636,45.448147],[13.517833,45.449774],[13.520763,45.457261],[13.504568,45.483873],[13.501475,45.498603],[13.507091,45.511908],[13.513357,45.511908],[13.523123,45.506252],[13.568614,45.49079],[13.589529,45.488837],[13.591645,45.493109],[13.589122,45.501614],[13.595958,45.511908],[13.595958,45.518134],[13.586192,45.519477],[13.578624,45.523383],[13.572765,45.529975],[13.568614,45.539252],[13.58961,45.535793],[13.675141,45.544745],[13.75294,45.552883],[13.75294,45.559068],[13.742361,45.56977],[13.727387,45.581204],[13.711762,45.593207],[13.718761,45.600653],[13.730154,45.613105],[13.757009,45.613674],[13.786876,45.611151],[13.808116,45.614325],[13.795584,45.617011],[13.786469,45.624335],[13.77711,45.635443],[13.739268,45.649115],[13.75766,45.654975],[13.753673,45.672309],[13.739106,45.691596],[13.726248,45.703762],[13.647309,45.76203],[13.628917,45.77261],[13.574229,45.789618],[13.55128,45.792426],[13.534434,45.78205],[13.524181,45.760077],[13.528331,45.740546],[13.554942,45.737209],[13.518403,45.72484],[13.513357,45.720771],[13.507823,45.714423],[13.480235,45.710679],[13.469249,45.706855],[13.451671,45.693793],[13.427989,45.681138],[13.401703,45.675442],[13.37672,45.683173],[13.390961,45.685777],[13.40919,45.691311],[13.424815,45.698554],[13.431407,45.706855],[13.422618,45.724066],[13.381684,45.730048],[13.369395,45.744615],[13.351817,45.740302],[13.254893,45.756049],[13.24586,45.758938],[13.221853,45.776068],[13.215505,45.778795],[13.204926,45.777737],[13.169444,45.768744],[13.157725,45.754584],[13.149669,45.751532],[13.139822,45.754869],[13.131358,45.768866],[13.119314,45.771959],[13.11085,45.767646],[13.108165,45.758205],[13.111827,45.748847],[13.122895,45.744615],[13.122895,45.737209],[13.100597,45.736233],[13.080577,45.727607],[13.069591,45.71369],[13.075043,45.696845],[13.091482,45.689195],[13.111664,45.691352],[13.149669,45.703762],[13.138031,45.689399],[13.103038,45.669013],[13.095632,45.65233],[13.095551,45.652167],[13.084972,45.641913],[13.060557,45.636664],[12.9817,45.634833],[12.943858,45.628567],[12.780772,45.553534],[12.611664,45.496161],[12.512706,45.470445],[12.495942,45.460395],[12.487804,45.456732],[12.451427,45.450426],[12.423676,45.438056],[12.41033,45.436225],[12.418224,45.451117],[12.42921,45.464016],[12.435802,45.474921],[12.430919,45.484036],[12.440603,45.482978],[12.447276,45.48432],[12.45102,45.489],[12.451427,45.498236],[12.458181,45.498236],[12.462901,45.489732],[12.46697,45.485582],[12.471934,45.485907],[12.478689,45.49079],[12.465017,45.504462],[12.476329,45.503567],[12.487153,45.504096],[12.497325,45.506741],[12.499197,45.504462],[12.499848,45.505845],[12.503184,45.502875],[12.506196,45.499091],[12.506602,45.498236],[12.503184,45.49787],[12.492931,45.498236],[12.492931,45.49079],[12.515147,45.492743],[12.520518,45.505032],[12.521495,45.518988],[12.530447,45.52558],[12.548106,45.527004],[12.562511,45.531643],[12.573578,45.540025],[12.581716,45.552883],[12.569672,45.549384],[12.5442,45.536566],[12.537283,45.535834],[12.518321,45.549954],[12.510509,45.559068],[12.506602,45.57331],[12.485199,45.565009],[12.458507,45.548326],[12.441905,45.530341],[12.451427,45.518134],[12.451427,45.511908],[12.434906,45.512356],[12.417735,45.523586],[12.41033,45.518134],[12.403575,45.518134],[12.396739,45.539252],[12.384125,45.523017],[12.390391,45.513983],[12.424001,45.504462],[12.424001,45.498236],[12.411632,45.493313],[12.393403,45.491645],[12.380544,45.494778],[12.383067,45.504462],[12.350434,45.504869],[12.309581,45.488918],[12.272716,45.463609],[12.252696,45.436225],[12.252696,45.429999],[12.258962,45.429999],[12.250011,45.420722],[12.246104,45.411322],[12.248546,45.402533],[12.258962,45.395209],[12.249197,45.385484],[12.247406,45.378241],[12.248057,45.370998],[12.245291,45.36107],[12.237804,45.357733],[12.228282,45.357489],[12.223806,45.353949],[12.232188,45.340562],[12.220876,45.327053],[12.216319,45.31623],[12.208751,45.309068],[12.187511,45.306464],[12.174327,45.310533],[12.162934,45.31623],[12.15447,45.313463],[12.149099,45.292182],[12.159841,45.283108],[12.168793,45.262152],[12.180675,45.258043],[12.191661,45.262885],[12.199392,45.274604],[12.201915,45.288316],[12.197439,45.299628],[12.217296,45.29385],[12.221446,45.283271],[12.220551,45.268785],[12.224864,45.251166],[12.213878,45.248114],[12.211111,45.242987],[12.21518,45.236802],[12.224864,45.230699],[12.221365,45.216254],[12.230479,45.20425],[12.247325,45.196926],[12.266368,45.196601],[12.26352,45.200344],[12.262543,45.200751],[12.258962,45.202826],[12.273692,45.210842],[12.296072,45.22663],[12.307302,45.230699],[12.298025,45.215399],[12.303966,45.200751],[12.315115,45.186469],[12.321056,45.172349],[12.321951,45.138739],[12.328461,45.10102],[12.31837,45.103461],[12.307302,45.107856],[12.308442,45.114447],[12.307302,45.124172],[12.307302,45.128363],[12.297374,45.10635],[12.296723,45.088568],[12.306651,45.078559],[12.328461,45.079901],[12.325206,45.083686],[12.323578,45.086737],[12.321056,45.093573],[12.340831,45.081448],[12.353038,45.066962],[12.363292,45.052191],[12.376231,45.038967],[12.376231,45.032172],[12.368337,45.031155],[12.364106,45.029364],[12.36085,45.027086],[12.355154,45.024644],[12.368826,45.010972],[12.383556,45.026435],[12.386567,45.038764],[12.380626,45.05093],[12.368826,45.065619],[12.383311,45.056342],[12.401378,45.049872],[12.413422,45.042873],[12.41033,45.032172],[12.42628,45.020006],[12.434093,45.01553],[12.444591,45.010972],[12.464692,44.992011],[12.486176,44.976508],[12.499197,44.98371],[12.49586,44.983954],[12.489106,44.983303],[12.486095,44.98371],[12.486095,44.991156],[12.502615,44.991441],[12.516775,44.987616],[12.527599,44.98017],[12.533865,44.970038],[12.53297,44.960842],[12.523123,44.950019],[12.527029,44.943345],[12.518809,44.933783],[12.515391,44.928371],[12.512706,44.922309],[12.506602,44.922309],[12.499034,44.921454],[12.494884,44.910468],[12.492931,44.87816],[12.487315,44.86225],[12.474132,44.845771],[12.444591,44.820502],[12.443126,44.825019],[12.438731,44.834906],[12.43214,44.846015],[12.424001,44.854641],[12.43922,44.87759],[12.443044,44.890082],[12.438324,44.901109],[12.426931,44.904975],[12.415538,44.899848],[12.406912,44.891303],[12.403575,44.884711],[12.3921,44.868394],[12.391612,44.858832],[12.416515,44.851142],[12.415863,44.843573],[12.408214,44.836249],[12.396739,44.833482],[12.396739,44.826646],[12.403819,44.825426],[12.41627,44.821438],[12.424001,44.820502],[12.416189,44.80329],[12.39796,44.793769],[12.375662,44.792222],[12.357432,44.804145],[12.346853,44.815334],[12.321056,44.833482],[12.302989,44.842922],[12.292328,44.843248],[12.266368,44.826646],[12.266368,44.820502],[12.28004,44.820502],[12.253591,44.751288],[12.246593,44.711615],[12.252696,44.668402],[12.26588,44.636176],[12.274913,44.62051],[12.283458,44.613756],[12.285818,44.602688],[12.28004,44.531887],[12.283702,44.487616],[12.31422,44.387193],[12.318207,44.361151],[12.321056,44.353705],[12.32545,44.347805],[12.339203,44.334296],[12.342133,44.329495],[12.344249,44.308295],[12.350271,44.288153],[12.368826,44.250678],[12.389985,44.222724],[12.417166,44.195461],[12.458018,44.166409],[12.47877,44.13935],[12.510916,44.114569],[12.547374,44.093451],[12.574229,44.085598],[12.631358,44.030097],[12.660899,44.008287],[12.69158,43.990627],[12.710297,43.982896],[12.753835,43.972398],[12.756114,43.971869],[12.803966,43.966864],[12.823009,43.958564],[12.862153,43.93537],[12.928884,43.915839],[12.93865,43.904608],[12.947276,43.89761],[13.253266,43.703192],[13.370128,43.650458],[13.389822,43.644599],[13.399669,43.635647],[13.446625,43.623725],[13.473399,43.612006],[13.483165,43.616278],[13.490733,43.623603],[13.496267,43.627509],[13.499034,43.628485],[13.501231,43.630601],[13.504405,43.632758],[13.510265,43.633734],[13.516124,43.631741],[13.519054,43.627183],[13.521007,43.622707],[13.524181,43.620673],[13.543224,43.613227],[13.557791,43.596747],[13.569184,43.580308],[13.578868,43.572903],[13.597911,43.569525],[13.615571,43.560492],[13.624522,43.547187],[13.616954,43.531317],[13.760265,43.263739],[13.776052,43.243598],[13.780284,43.236518],[13.786632,43.200588],[13.790782,43.192084],[13.802745,43.178209],[13.834809,43.127265],[13.848643,43.091742],[13.865408,43.00731],[13.905528,42.901557],[13.944672,42.798285],[13.980479,42.730373],[14,42.70032672682151],[14,40.950252602149966],[13.965343,40.996405],[13.930186,41.014146],[13.917979,41.023668],[13.914561,41.033149],[13.912771,41.054429],[13.910655,41.064643],[13.884318,41.1048],[13.851725,41.147316],[13.790491,41.205864],[13.721853,41.252387],[13.708507,41.256415],[13.678722,41.250556],[13.663341,41.250678],[13.656586,41.259589],[13.594412,41.253119],[13.56365,41.237982],[13.57545,41.208075],[13.543956,41.20661],[13.534434,41.208075],[13.525238,41.215399],[13.519542,41.225165],[13.514415,41.229682],[13.507091,41.221747],[13.499685,41.221747],[13.480235,41.239163],[13.324392,41.294827],[13.285818,41.295722],[13.204845,41.283759],[13.187022,41.278022],[13.151215,41.260199],[13.114513,41.250881],[13.090505,41.226549],[13.068207,41.221747],[13.044607,41.227525],[13.036794,41.240424],[13.033458,41.256903],[13.023692,41.273586],[13.011974,41.286526],[12.992686,41.315619],[12.979503,41.331],[12.923839,41.379788],[12.893565,41.399319],[12.862153,41.41352],[12.841563,41.418402],[12.76295,41.421373],[12.748546,41.423733],[12.678559,41.457953],[12.653982,41.465644],[12.642426,41.458197],[12.635265,41.447496],[12.619395,41.459133],[12.545584,41.544135],[12.448009,41.630764],[12.342784,41.702297],[12.327159,41.711371],[12.300629,41.717434],[12.285004,41.7272],[12.276622,41.729438],[12.246918,41.73371],[12.239024,41.736274],[12.223481,41.750678],[12.21518,41.768134],[12.211762,41.787543],[12.211192,41.807929],[12.206228,41.827338],[12.194591,41.847357],[12.170177,41.879584],[12.147472,41.903469],[12.049978,41.96015],[12.038829,41.965155],[12.029796,41.972846],[12.026134,41.985785],[12.020356,41.993069],[11.992035,41.996283],[11.982188,41.999742],[11.969005,42.01142],[11.952647,42.022284],[11.934581,42.03148],[11.91684,42.037909],[11.839692,42.036444],[11.827485,42.034166],[11.822113,42.04678],[11.809418,42.066352],[11.79363,42.084459],[11.779796,42.092515],[11.771983,42.106269],[11.750173,42.127916],[11.745616,42.136623],[11.742931,42.152289],[11.736176,42.168891],[11.68214,42.252143],[11.658214,42.279364],[11.539073,42.348863],[11.489268,42.359361],[11.420665,42.386623],[11.396169,42.392971],[11.396169,42.400377],[11.386892,42.404283],[11.376638,42.406887],[11.365733,42.407904],[11.354666,42.407213],[11.362071,42.400377],[11.333018,42.40058],[11.259044,42.420844],[11.245616,42.422309],[11.227387,42.422187],[11.211274,42.418891],[11.204356,42.410956],[11.200938,42.395453],[11.18629,42.379299],[11.183849,42.366278],[11.174653,42.36933],[11.164724,42.36933],[11.1574,42.367743],[11.155935,42.366278],[11.147797,42.371405],[11.134532,42.384182],[11.106619,42.391262],[11.094493,42.402737],[11.086762,42.418362],[11.086941,42.429457],[11.099132,42.442857],[11.113021,42.446358],[11.141816,42.438797],[11.164191,42.439828],[11.179692,42.456498],[11.188448,42.480267],[11.188975,42.504706],[11.18686,42.520819],[11.166026,42.54621],[11.158458,42.564032],[11.148611,42.563178],[11.137218,42.558905],[11.128673,42.558051],[11.115977,42.571967],[11.10727,42.590766],[11.097423,42.606879],[11.080903,42.612698],[11.07781,42.632229],[11.053477,42.64704],[11.005707,42.667914],[11.000255,42.679877],[10.995616,42.696031],[10.990001,42.710273],[10.981212,42.716295],[10.972341,42.720038],[10.943614,42.742987],[10.89088,42.763902],[10.731293,42.804429],[10.755382,42.819159],[10.764903,42.835273],[10.766368,42.854193],[10.765636,42.877102],[10.768728,42.883938],[10.774587,42.888251],[10.77768,42.894721],[10.77296,42.908149],[10.76352,42.91828],[10.750743,42.925279],[10.681407,42.949042],[10.632498,42.958482],[10.583263,42.959703],[10.539073,42.949123],[10.543468,42.938788],[10.54656,42.93476],[10.518565,42.925279],[10.499522,42.940497],[10.47755,42.990058],[10.502696,43.005561],[10.5171,43.023912],[10.539073,43.079413],[10.535655,43.091376],[10.535655,43.112616],[10.539317,43.134182],[10.54656,43.147121],[10.538341,43.164252],[10.534434,43.185289],[10.532888,43.226223],[10.528168,43.246772],[10.516938,43.266791],[10.437022,43.388577],[10.373383,43.453192],[10.359141,43.465277],[10.326345,43.476874],[10.317231,43.492621],[10.29477,43.568549],[10.264008,43.809394],[10.251638,43.846625],[10.210134,43.920233],[10.180675,43.955268],[10.136485,43.978705],[10.105805,44.01675],[10.090587,44.025377],[10.072032,44.029527],[10.03533,44.047838],[10.014822,44.052069],[9.998546,44.058051],[9.988536,44.05976],[9.984141,44.055487],[9.980724,44.049872],[9.972667,44.045722],[9.962738,44.044664],[9.953624,44.048651],[9.937836,44.06037],[9.904307,44.079901],[9.88795,44.093004],[9.876801,44.087836],[9.844737,44.108629],[9.826427,44.107245],[9.833263,44.09984],[9.828624,44.098131],[9.823985,44.09512],[9.819591,44.093004],[9.824474,44.084906],[9.830577,44.078843],[9.838145,44.074774],[9.847504,44.072496],[9.847504,44.066311],[9.841645,44.063381],[9.838878,44.06037],[9.833263,44.052069],[9.846365,44.046291],[9.84254,44.041164],[9.832286,44.042304],[9.826427,44.055487],[9.819835,44.063381],[9.771821,44.079413],[9.720876,44.113471],[9.709727,44.117743],[9.682628,44.136542],[9.672537,44.140815],[9.64324,44.14232],[9.631033,44.144599],[9.621104,44.148261],[9.586192,44.17772],[9.579926,44.178941],[9.573009,44.191596],[9.556488,44.200141],[9.511241,44.215237],[9.499034,44.221829],[9.489757,44.230902],[9.484386,44.243842],[9.472504,44.239814],[9.453868,44.237698],[9.436778,44.239488],[9.42921,44.24726],[9.422374,44.256781],[9.374522,44.271796],[9.367686,44.29442],[9.262706,44.336412],[9.230642,44.353705],[9.221039,44.344062],[9.213715,44.333441],[9.209809,44.320868],[9.210704,44.305325],[9.16505,44.318305],[9.146658,44.328559],[9.148611,44.340033],[9.130056,44.363349],[9.102061,44.373969],[9.001231,44.387274],[8.952891,44.399807],[8.923676,44.411566],[8.914561,44.408922],[8.868419,44.409735],[8.845388,44.413479],[8.837738,44.417182],[8.826996,44.428453],[8.76238,44.432115],[8.737153,44.428778],[8.724783,44.423977],[8.695811,44.406724],[8.685313,44.398098],[8.678559,44.39468],[8.670909,44.394721],[8.662771,44.395575],[8.655121,44.39468],[8.593761,44.362738],[8.576671,44.360541],[8.564789,44.357164],[8.540294,44.340033],[8.466075,44.304267],[8.444509,44.283881],[8.449718,44.26435],[8.439464,44.25316],[8.436534,44.247545],[8.435395,44.240424],[8.432384,44.238023],[8.417247,44.230658],[8.411876,44.227037],[8.406505,44.215033],[8.408539,44.204088],[8.408214,44.193508],[8.394542,44.182359],[8.369395,44.173529],[8.313487,44.160468],[8.284679,44.148261],[8.269542,44.138739],[8.256521,44.128363],[8.233165,44.103583],[8.229991,44.09634],[8.231212,44.080308],[8.229991,44.072496],[8.223806,44.057196],[8.216319,44.045233],[8.169119,44.006659],[8.15268,43.983222],[8.167979,43.962633],[8.167979,43.956488],[8.144705,43.952582],[8.115245,43.92768],[8.089203,43.919867],[8.081554,43.915229],[8.07545,43.909654],[8.073009,43.904608],[8.067719,43.896674],[8.055675,43.892076],[8.031423,43.887519],[7.959727,43.852851],[7.785818,43.821967],[7.736583,43.798245],[7.694998,43.791205],[7.572032,43.791327],[7.544119,43.784491],[7.531098,43.784491],[7.523204,43.789049],[7.512869,43.792141],[7.502289,43.792222],[7.489106,43.785468],[7.484874,43.785386],[7.480724,43.785834],[7.47641,43.784491],[7.475759,43.780829],[7.477306,43.768134],[7.47641,43.764635],[7.468435,43.761705],[7.462657,43.762112],[7.454345,43.757117],[7.445974,43.749845],[7.432845,43.739853],[7.417957,43.730904],[7.404319,43.717969],[7.380723,43.719273],[7.36575,43.72273],[7.353184,43.715691],[7.342296,43.707831],[7.338064,43.69831],[7.330533,43.686424],[7.319002,43.68525],[7.300904,43.687689],[7.280253,43.693326],[7.257273,43.691648],[7.241675,43.684869],[7.228509,43.674196],[7.231814,43.66347],[7.213805,43.648673],[7.203791,43.64436],[7.196677,43.656917],[7.177651,43.660109],[7.164595,43.656061],[7.151622,43.654771],[7.144216,43.645453],[7.136567,43.641181],[7.133067,43.633857],[7.126154,43.605833],[7.132091,43.578803],[7.132579,43.573554],[7.136242,43.562459],[7.138916,43.55402],[7.125511,43.547768],[7.112941,43.564544],[7.104324,43.568294],[7.088427,43.568674],[7.071052,43.560805],[7.058108,43.549885],[7.045078,43.542143],[7.037202,43.536264],[7.030634,43.547889],[7.014468,43.547087],[6.993819,43.548906],[6.9756,43.546946],[6.962087,43.540107],[6.945203,43.527253],[6.940888,43.51246],[6.949555,43.50788],[6.948985,43.507392],[6.953805,43.504616],[6.954299,43.500106],[6.92508,43.472761],[6.920372,43.449012],[6.898242,43.437999],[6.894028,43.427628],[6.871072,43.426093],[6.869672,43.432052],[6.86656,43.435456],[6.862957,43.439362],[6.857988,43.436176],[6.856098,43.428729],[6.860136,43.415868],[6.846672,43.412577],[6.834826,43.415811],[6.818843,43.416072],[6.78305,43.408635],[6.772974,43.418454],[6.757086,43.422687],[6.746501,43.417906],[6.731146,43.407847],[6.732824,43.382079],[6.717784,43.366889],[6.717838,43.350604],[6.693931,43.348372],[6.674571,43.346381],[6.666026,43.333197],[6.661306,43.322333],[6.652029,43.314927],[6.624629,43.295913],[6.597243,43.284007],[6.590892,43.268898],[6.611672,43.264288],[6.672358,43.276196],[6.693374,43.272973],[6.698022,43.265457],[6.685395,43.248037],[6.668356,43.239536],[6.665403,43.22129],[6.671978,43.213609],[6.679801,43.201553],[6.6604,43.190412],[6.640391,43.18183],[6.629161,43.179877],[6.609874,43.173407],[6.599457,43.174994],[6.59547,43.179877],[6.593272,43.18773],[6.581276,43.184374],[6.563718,43.184449],[6.539912,43.182204],[6.536427,43.172544],[6.526714,43.160567],[6.505683,43.150971],[6.479163,43.15606],[6.451332,43.152719],[6.422018,43.152342],[6.401679,43.146938],[6.378541,43.136079],[6.36608,43.118635],[6.369878,43.105519],[6.375371,43.090841],[6.342258,43.090763],[6.328868,43.099921],[6.325694,43.104193],[6.306202,43.109413],[6.280374,43.118666],[6.25347,43.120875],[6.219702,43.116548],[6.193198,43.108773],[6.178664,43.102856],[6.162934,43.092597],[6.153168,43.071967],[6.152768,43.048107],[6.17133,43.042325],[6.18542,43.045444],[6.180072,43.035922],[6.154462,43.033751],[6.097694,43.031261],[6.088517,43.034849],[6.103031,43.040781],[6.119254,43.04515],[6.132066,43.052638],[6.129088,43.071362],[6.109662,43.084316],[6.091933,43.082903],[6.044523,43.078208],[6.027008,43.078195],[6.01652,43.098936],[5.991732,43.102347],[5.958652,43.102168],[5.934093,43.113593],[5.936534,43.119452],[5.938243,43.129096],[5.940929,43.134019],[5.92449,43.134345],[5.908539,43.131293],[5.879405,43.120429],[5.896251,43.115424],[5.91061,43.093204],[5.927252,43.087601],[5.951379,43.079978],[5.940288,43.07091],[5.917208,43.072742],[5.887956,43.072226],[5.875336,43.068793],[5.856605,43.044829],[5.81896,43.053469],[5.790242,43.069931],[5.781873,43.079118],[5.802896,43.08889],[5.818085,43.09909],[5.811465,43.106725],[5.800564,43.111849],[5.783407,43.114598],[5.78084,43.123334],[5.776127,43.130811],[5.760558,43.131982],[5.741012,43.132063],[5.696299,43.146875],[5.687673,43.16885],[5.673919,43.179889],[5.655221,43.18559],[5.634213,43.187229],[5.622903,43.176727],[5.61242,43.160429],[5.588262,43.167979],[5.572706,43.169148],[5.558974,43.181578],[5.547246,43.193859],[5.537836,43.20739],[5.524952,43.212629],[5.514336,43.20774],[5.504176,43.205659],[5.459833,43.208519],[5.439754,43.207646],[5.409515,43.211292],[5.395311,43.212341],[5.370337,43.207859],[5.34698,43.215899],[5.350597,43.233588],[5.35377,43.243801],[5.36085,43.253974],[5.369151,43.270413],[5.357343,43.280345],[5.355968,43.29206],[5.351817,43.297919],[5.338883,43.334289],[5.294173,43.355472],[5.238279,43.328041],[5.163237,43.329314],[5.125174,43.325769],[5.064795,43.328019],[5.034022,43.335476],[5.013936,43.357921],[5.005572,43.381628],[5.026134,43.409329],[5.05714,43.422065],[5.146169,43.422065],[5.173839,43.42829],[5.192882,43.439521],[5.213552,43.457831],[5.226329,43.480292],[5.22283,43.503974],[5.193614,43.489936],[5.165538,43.482489],[5.139985,43.485785],[5.118419,43.503974],[5.111501,43.519355],[5.11085,43.527899],[5.105724,43.533026],[5.084972,43.538153],[5.077403,43.538886],[5.053722,43.538153],[5.049571,43.541449],[5.03533,43.555732],[5.029145,43.55858],[5.022309,43.552191],[5.01588,43.538764],[5.010997,43.525092],[5.009288,43.517646],[5.014659,43.498725],[5.023692,43.490465],[5.035818,43.485582],[5.050304,43.476711],[5.062266,43.451646],[5.051117,43.429267],[5.027599,43.416978],[4.998466,43.414699],[4.983084,43.41706],[4.928477,43.440131],[4.903168,43.431627],[4.892589,43.42536],[4.868175,43.421454],[4.858409,43.415229],[4.850271,43.401435],[4.854991,43.396186],[4.864891,43.3779],[4.867532,43.365112],[4.901005,43.366965],[4.877189,43.350782],[4.855778,43.341779],[4.850823,43.358929],[4.833263,43.381985],[4.791759,43.399115],[4.757823,43.422349],[4.742442,43.448717],[4.744965,43.507392],[4.742442,43.524482],[4.736176,43.539496],[4.725841,43.556789],[4.711925,43.571519],[4.694591,43.579088],[4.694591,43.572903],[4.724376,43.538398],[4.72877,43.527899],[4.72877,43.456204],[4.742524,43.422553],[4.769705,43.401923],[4.800059,43.386054],[4.823019,43.367169],[4.820279,43.346356],[4.791247,43.345222],[4.665886,43.347541],[4.592336,43.359889],[4.566289,43.371094],[4.565544,43.387949],[4.585704,43.404242],[4.588044,43.416891],[4.579594,43.430066],[4.555208,43.443266],[4.513031,43.455797],[4.409419,43.447741],[4.205903,43.459906],[4.181651,43.463772],[4.16033,43.471503],[4.132823,43.487047],[4.117198,43.510484],[4.132823,43.532782],[4.131196,43.536241],[4.105317,43.551866],[4.047455,43.556138],[3.990896,43.550849],[3.952973,43.539944],[3.939301,43.532538],[3.739919,43.412828],[3.622162,43.374905],[3.589692,43.354885],[3.513357,43.281073],[3.492361,43.274319],[3.452403,43.288764],[3.428396,43.285468],[3.385427,43.283922],[3.317719,43.263088],[3.244314,43.219428],[3.22755,43.20425],[3.220958,43.195217],[3.207286,43.186632],[3.195893,43.176663],[3.178722,43.165229],[3.165945,43.152411],[3.15447,43.135281],[3.135997,43.121039],[3.114024,43.106309],[3.104177,43.087795],[3.096039,43.072577],[3.086029,43.054023],[3.070404,43.026923],[3.063243,43.008368],[3.056082,42.992703],[3.046153,42.964179],[3.038992,42.942776],[3.04184,42.932807],[3.054698,42.92711],[3.056082,42.907131],[3.047537,42.847235],[3.040457,42.790188],[3.038992,42.750271],[3.043305,42.724595],[3.037608,42.683214],[3.04184,42.629055],[3.046153,42.587673],[3.05185,42.554877],[3.066091,42.54206],[3.087494,42.534939],[3.114594,42.530626],[3.13738,42.524929],[3.145925,42.51496],[3.145925,42.503526],[3.143077,42.492133],[3.150238,42.482164],[3.160248,42.475043],[3.175873,42.456488],[3.18157,42.435085],[3.178722,42.417996],[3.170177,42.396593],[3.17449,42.380886],[3.17449,42.363796],[3.187348,42.349514],[3.204194,42.339586],[3.226492,42.342515],[3.249848,42.343207],[3.263031,42.32921],[3.269867,42.32921],[3.28061,42.336859],[3.293712,42.334988],[3.317719,42.322984],[3.294037,42.288031],[3.290375,42.278062],[3.287039,42.262926],[3.279389,42.255642],[3.270356,42.250108],[3.263031,42.239854],[3.247162,42.245714],[3.210134,42.239732],[3.178722,42.249701],[3.170177,42.25967],[3.151622,42.256822],[3.1303,42.239732],[3.118826,42.218329],[3.117442,42.182847],[3.116466,42.158433],[3.122488,42.140489],[3.138601,42.127631],[3.173106,42.112006],[3.192299,42.092921],[3.214496,42.068334],[3.213009,42.055986],[3.19986,42.04619],[3.195896,42.033118],[3.201589,42.017442],[3.20696,41.99669],[3.207856,41.990017],[3.211843,41.984605],[3.230561,41.973009],[3.235688,41.965522],[3.232188,41.946031],[3.207449,41.913926],[3.194916,41.888292],[3.178559,41.87523],[3.150165,41.845351],[3.116829,41.847569],[3.078631,41.826618],[3.069058,41.799076],[3.040341,41.78689],[2.950938,41.73428],[2.932991,41.712464],[2.90087,41.706706],[2.877254,41.701958],[2.851085,41.69717],[2.84018,41.694648],[2.83546,41.692572],[2.82016,41.681952],[2.817068,41.677639],[2.813162,41.670315],[2.803722,41.668647],[2.792003,41.669013],[2.778497,41.645582],[2.651866,41.605292],[2.449474,41.535224],[2.428966,41.518948],[2.371349,41.489203],[2.296723,41.465318],[2.267345,41.448635],[2.240408,41.420966],[2.191905,41.356757],[2.163259,41.326646],[2.130544,41.303656],[2.060313,41.274604],[2.019705,41.265855],[1.951345,41.260688],[1.884125,41.247504],[1.86378,41.238105],[1.854015,41.235989],[1.819835,41.237128],[1.62436,41.192165],[1.539236,41.187445],[1.288097,41.116278],[1.217784,41.104682],[1.210053,41.09988],[1.192475,41.075995],[1.18865,41.068305],[1.183604,41.062567],[1.172944,41.058661],[1.149099,41.069648],[1.141694,41.071723],[1.097667,41.070868],[1.055675,41.064887],[1.017426,41.051785],[0.990408,41.0397],[0.877452,40.954779],[0.822765,40.899604],[0.714203,40.815212],[0.694835,40.785997],[0.721528,40.774278],[0.750173,40.76557],[0.76238,40.766059],[0.767263,40.771023],[0.76352,40.778388],[0.750173,40.785997],[0.766938,40.78502],[0.780528,40.779486],[0.792003,40.771186],[0.815929,40.748399],[0.841807,40.732123],[0.854177,40.73314],[0.873709,40.727932],[0.872406,40.707099],[0.858084,40.686265],[0.848318,40.67536],[0.784028,40.660956],[0.756358,40.642239],[0.707042,40.583401],[0.677094,40.565172],[0.64796,40.556912],[0.615896,40.553453],[0.592459,40.582099],[0.640636,40.586859],[0.663178,40.574734],[0.696218,40.590359],[0.732677,40.633734],[0.712494,40.636176],[0.682221,40.634223],[0.599783,40.613715],[0.58017,40.603664],[0.563487,40.590033],[0.548513,40.572333],[0.517426,40.51435],[0.501313,40.484198],[0.483409,40.465033],[0.466156,40.45067],[0.452647,40.434068],[0.446137,40.408433],[0.420258,40.388251],[0.350597,40.284898],[0.338959,40.274359],[0.312104,40.257514],[0.298839,40.246772],[0.26474,40.209784],[0.205251,40.171536],[0.144542,40.078843],[0.117035,40.056342],[0.066173,40.031928],[0.040497,40.002875],[0,39.93672026991248],[0,38.86776839965417],[0.017426,38.864325],[0.06308,38.860785],[0.111013,38.849921],[0.153982,38.831],[0.185313,38.803534],[0.181,38.801907],[0.170909,38.796088],[0.182872,38.791815],[0.190766,38.785224],[0.217865,38.768134],[0.227712,38.770209],[0.23406,38.75788],[0.234548,38.742255],[0.227712,38.734565],[0.208995,38.73371],[0.192068,38.730414],[0.176768,38.724026],[0.162608,38.713528],[0.15089,38.69245],[0.148936,38.689927],[0.14503,38.686347],[0.125743,38.685492],[0.118582,38.682807],[0.105317,38.672553],[0.093679,38.667629],[0.083018,38.660956],[0.073131,38.645209],[0.080577,38.631008],[0.060435,38.634833],[0.046641,38.632229],[0.033376,38.627387],[0.015025,38.624742],[0,38.62457754977337],[0,47],[14,47]]]]}},{"type":"Feature","properties":{"featurecla":"Land","scalerank":6,"min_zoom":5},"geometry":{"type":"MultiPolygon","coordinates":[[[[8.305837,39.193305],[8.306326,39.160793],[8.312022,39.120307],[8.305837,39.10456],[8.29005,39.098822],[8.269379,39.100165],[8.254731,39.107123],[8.257335,39.11815],[8.257335,39.124416],[8.232677,39.14411],[8.22462,39.15705],[8.229991,39.172797],[8.245291,39.180976],[8.290294,39.188422],[8.305837,39.193305]]]]}},{"type":"Feature","properties":{"featurecla":"Land","scalerank":5,"min_zoom":3},"geometry":{"type":"MultiPolygon","coordinates":[[[[1.526383,38.677768],[1.565684,38.691486],[1.582367,38.674913],[1.581391,38.653062],[1.557486,38.648839],[1.523448,38.6494],[1.474223,38.674597],[1.458086,38.681341],[1.438731,38.670274],[1.429047,38.664944],[1.412792,38.646446],[1.396977,38.638646],[1.38295,38.642061],[1.387551,38.662378],[1.38346,38.67],[1.383474,38.680406],[1.388682,38.68712],[1.393321,38.696275],[1.393728,38.70421],[1.386485,38.707668],[1.382823,38.711575],[1.388612,38.719115],[1.401002,38.730326],[1.408029,38.724486],[1.418142,38.727891],[1.427908,38.739366],[1.431326,38.754869],[1.435395,38.755357],[1.436534,38.754014],[1.436534,38.751614],[1.437511,38.749254],[1.486095,38.694566],[1.526383,38.677768]]],[[[1.605968,39.091295],[1.600841,39.082384],[1.606944,39.062364],[1.623057,39.029202],[1.606456,39.028388],[1.593272,39.02025],[1.584646,39.007432],[1.581391,38.991929],[1.576182,38.985826],[1.541189,38.96776],[1.509776,38.930162],[1.497244,38.921861],[1.469493,38.910264],[1.458669,38.900133],[1.454926,38.904039],[1.448416,38.9088],[1.444998,38.913153],[1.428559,38.896593],[1.414728,38.890622],[1.404145,38.856757],[1.403105,38.832278],[1.37065,38.831809],[1.36085,38.851915],[1.343516,38.862372],[1.328868,38.857896],[1.322032,38.857896],[1.318614,38.859117],[1.317719,38.859849],[1.307791,38.857896],[1.300304,38.870469],[1.283458,38.87462],[1.266612,38.870347],[1.259939,38.857896],[1.228201,38.87462],[1.216645,38.885077],[1.212169,38.903225],[1.224294,38.927354],[1.22755,38.942003],[1.218435,38.954088],[1.226736,38.960191],[1.236827,38.965155],[1.24822,38.966376],[1.259939,38.960924],[1.267263,38.966051],[1.276866,38.968004],[1.300955,38.96776],[1.292247,39.009874],[1.292817,39.033271],[1.304454,39.043443],[1.317556,39.047593],[1.33253,39.057237],[1.356781,39.077623],[1.363048,39.077623],[1.372244,39.071397],[1.391938,39.083319],[1.403331,39.077623],[1.423188,39.090562],[1.450694,39.101793],[1.478689,39.107733],[1.499522,39.104885],[1.508637,39.114366],[1.522716,39.118883],[1.53712,39.118028],[1.553559,39.107652],[1.560395,39.105821],[1.57838,39.104885],[1.589692,39.102769],[1.597911,39.098131],[1.605968,39.091295]]],[[[10.44337,42.845445],[10.436046,42.838121],[10.431163,42.827867],[10.430675,42.816148],[10.436697,42.804429],[10.430024,42.787584],[10.420258,42.776435],[10.406912,42.768988],[10.388845,42.763495],[10.40797,42.75727],[10.425141,42.74079],[10.430675,42.722113],[10.415538,42.708889],[10.410981,42.717963],[10.403331,42.718899],[10.39324,42.718207],[10.381358,42.722561],[10.377289,42.727973],[10.367198,42.745998],[10.364268,42.749823],[10.351248,42.755683],[10.337901,42.764838],[10.325043,42.764838],[10.313731,42.742987],[10.304535,42.759752],[10.265391,42.744574],[10.245372,42.75727],[10.240001,42.741889],[10.235199,42.735907],[10.229666,42.735419],[10.147227,42.737291],[10.124848,42.743109],[10.106781,42.757392],[10.10141,42.784003],[10.111664,42.801256],[10.132986,42.811916],[10.158214,42.817288],[10.179535,42.818752],[10.189952,42.816881],[10.212169,42.807847],[10.224376,42.804429],[10.242198,42.803168],[10.26588,42.804429],[10.264903,42.809394],[10.264334,42.810452],[10.262706,42.810248],[10.259044,42.811916],[10.272146,42.818752],[10.272146,42.826239],[10.272146,42.827338],[10.289317,42.825629],[10.326834,42.826239],[10.322113,42.811713],[10.332774,42.805976],[10.347341,42.805854],[10.354666,42.808173],[10.358084,42.817532],[10.365977,42.822943],[10.374766,42.827094],[10.381358,42.832424],[10.3921,42.857978],[10.399913,42.868842],[10.412364,42.873358],[10.422048,42.870836],[10.431,42.864447],[10.438487,42.855455],[10.44337,42.845445]]]]}},{"type":"Feature","properties":{"featurecla":"Land","scalerank":6,"min_zoom":6},"geometry":{"type":"MultiPolygon","coordinates":[[[[10.895844,42.386705],[10.91346,42.375241],[10.927307,42.353301],[10.929558,42.34056],[10.939764,42.33066],[10.923331,42.318728],[10.908946,42.325263],[10.871702,42.354052],[10.861827,42.366278],[10.876368,42.374439],[10.875824,42.386786],[10.882986,42.392157],[10.895844,42.386705]]],[[[9.456554,42.647406],[9.482107,42.620103],[9.476899,42.620103],[9.476817,42.619086],[9.456554,42.647406]]],[[[9.840099,43.065172],[9.841807,43.063422],[9.843923,43.060696],[9.847504,43.05858],[9.854811,43.044275],[9.842127,43.024956],[9.822954,43.008459],[9.801498,43.007805],[9.784595,43.028442],[9.806944,43.066408],[9.825777,43.07463],[9.840099,43.065172]]],[[[12.352061,45.405463],[12.371837,45.424872],[12.389171,45.433539],[12.407481,45.43065],[12.430919,45.415676],[12.418224,45.420356],[12.404796,45.422268],[12.376231,45.422553],[12.321462,45.348009],[12.319998,45.354153],[12.327891,45.37226],[12.352061,45.405463]]],[[[13.169281,38.717271],[13.18572,38.717515],[13.195974,38.711493],[13.197439,38.708319],[13.176768,38.69302],[13.165212,38.691067],[13.153494,38.69477],[13.153087,38.702297],[13.157888,38.709866],[13.169281,38.717271]]],[[[13.418956,40.7956],[13.424164,40.800238],[13.431977,40.801459],[13.426931,40.790839],[13.414724,40.785875],[13.418956,40.7956]]],[[[2.985367,39.166176],[2.982308,39.139184],[2.962154,39.116062],[2.930867,39.118176],[2.913614,39.151963],[2.940424,39.17193],[2.980582,39.18556],[2.985367,39.166176]]],[[[9.474783,41.23607],[9.478363,41.228461],[9.479503,41.224189],[9.479259,41.216946],[9.471039,41.189602],[9.474376,41.184272],[9.474864,41.179267],[9.470388,41.172105],[9.464366,41.172675],[9.456391,41.18065],[9.448741,41.185533],[9.441661,41.183051],[9.437022,41.18594],[9.447765,41.205064],[9.443533,41.211493],[9.446462,41.220404],[9.453868,41.233954],[9.459972,41.242377],[9.468028,41.241116],[9.474783,41.23607]]],[[[9.430919,41.224799],[9.434255,41.220608],[9.435313,41.217027],[9.395274,41.210598],[9.376964,41.213324],[9.373057,41.22191],[9.373057,41.229885],[9.377615,41.233832],[9.384939,41.236518],[9.391856,41.240709],[9.396251,41.247748],[9.39796,41.256049],[9.402192,41.257514],[9.40797,41.258124],[9.414236,41.262437],[9.421886,41.260891],[9.427419,41.254096],[9.430512,41.246283],[9.430431,41.237779],[9.429047,41.229397],[9.430919,41.224799]]],[[[10.297048,42.344875],[10.306407,42.351549],[10.315929,42.340766],[10.313243,42.32392],[10.294444,42.32803],[10.297048,42.344875]]],[[[10.091645,42.595771],[10.096039,42.590725],[10.097911,42.587958],[10.097911,42.583889],[10.095388,42.576972],[10.085785,42.572455],[10.071788,42.57274],[10.058604,42.575995],[10.050304,42.581936],[10.052582,42.589016],[10.062755,42.592027],[10.072602,42.600409],[10.079438,42.613918],[10.084321,42.614691],[10.087657,42.60399],[10.091645,42.595771]]],[[[6.235037,43.022406],[6.241885,43.02565],[6.251004,43.017297],[6.252209,43.002632],[6.230235,42.995347],[6.216482,42.990383],[6.202485,42.987128],[6.190115,42.99018],[6.166189,42.999661],[6.164724,43.005072],[6.175141,43.008979],[6.202973,43.008002],[6.211599,43.011623],[6.215017,43.014716],[6.218272,43.015448],[6.221039,43.01496],[6.233393,43.015582],[6.235037,43.022406]]],[[[12.329845,45.458808],[12.347179,45.458808],[12.36378,45.449652],[12.362071,45.438137],[12.352224,45.433987],[12.33725,45.427395],[12.320649,45.429836],[12.31658,45.443061],[12.329845,45.458808]]]]}},{"type":"Feature","properties":{"featurecla":"Land","scalerank":5,"min_zoom":4},"geometry":{"type":"MultiPolygon","coordinates":[[[[8.455903,39.073554],[8.458018,39.068061],[8.463145,39.065253],[8.4699,39.06566],[8.47641,39.06977],[8.477306,39.070705],[8.479177,39.072211],[8.483897,39.06977],[8.464041,39.056545],[8.459321,39.049791],[8.46339,39.042467],[8.453949,39.028144],[8.446544,38.99433],[8.437022,38.96719],[8.432465,38.962836],[8.421886,38.960517],[8.409841,38.961819],[8.406016,38.966946],[8.40504,38.974026],[8.401378,38.981024],[8.364919,39.029486],[8.349294,39.062161],[8.353526,39.083441],[8.353526,39.090888],[8.346039,39.090888],[8.346039,39.097724],[8.360362,39.11815],[8.385916,39.105048],[8.417654,39.106594],[8.444591,39.102729],[8.455903,39.073554]]],[[[13.944672,40.701606],[13.934825,40.705634],[13.91977,40.704495],[13.903494,40.700019],[13.890147,40.694159],[13.882009,40.69953],[13.859711,40.70775],[13.849132,40.715277],[13.85613,40.734849],[13.861501,40.744045],[13.870128,40.748725],[13.867198,40.752631],[13.862804,40.762397],[13.883149,40.762397],[13.9463,40.745185],[13.965831,40.735053],[13.962657,40.728949],[13.962413,40.723131],[13.965831,40.715277],[13.958669,40.711819],[13.944672,40.701606]]],[[[8.27475,41.057278],[8.25115,41.043769],[8.250987,41.016099],[8.24643,40.993638],[8.209646,40.995795],[8.217621,41.005032],[8.22169,41.01439],[8.223155,41.023993],[8.223155,41.033637],[8.228852,41.041734],[8.241384,41.052069],[8.260753,41.064643],[8.275645,41.06977],[8.277843,41.081732],[8.275645,41.095404],[8.277843,41.105658],[8.284353,41.106879],[8.302094,41.105048],[8.305837,41.109076],[8.307953,41.113837],[8.313324,41.118598],[8.326182,41.126125],[8.325938,41.118354],[8.327973,41.112494],[8.332367,41.105658],[8.34197,41.097846],[8.344737,41.086249],[8.341319,41.074123],[8.332367,41.064643],[8.27475,41.057278]]]]}},{"type":"Feature","properties":{"featurecla":"Land","scalerank":3,"min_zoom":2},"geometry":{"type":"MultiPolygon","coordinates":[[[[3.354503,39.784369],[3.383149,39.77794],[3.439789,39.75198],[3.474376,39.749701],[3.468516,39.739325],[3.469412,39.731065],[3.472667,39.723578],[3.474376,39.715522],[3.470551,39.710313],[3.464366,39.706407],[3.461436,39.700059],[3.46754,39.687567],[3.453868,39.659695],[3.443207,39.645779],[3.429942,39.639838],[3.413097,39.635077],[3.401866,39.623236],[3.398692,39.607733],[3.406016,39.591986],[3.365408,39.563056],[3.323253,39.523871],[3.291759,39.475775],[3.282481,39.420111],[3.272716,39.42475],[3.268809,39.427558],[3.252615,39.386176],[3.221039,39.35989],[3.129405,39.315741],[3.090994,39.290066],[3.083263,39.280097],[3.079112,39.276882],[3.069998,39.271755],[3.060802,39.26907],[3.056651,39.272976],[3.029307,39.304633],[3.02296,39.308173],[3.007335,39.313747],[3.001313,39.317694],[2.996755,39.326972],[2.99464,39.337958],[2.991384,39.347276],[2.984223,39.351142],[2.974457,39.353461],[2.958832,39.363227],[2.950043,39.365505],[2.938162,39.364366],[2.922374,39.359727],[2.912608,39.358669],[2.82545,39.363593],[2.786632,39.375922],[2.761729,39.400214],[2.751231,39.454779],[2.736583,39.462104],[2.739513,39.478298],[2.754893,39.502631],[2.7435,39.523383],[2.715099,39.543524],[2.681651,39.558661],[2.655284,39.564724],[2.633474,39.559272],[2.569102,39.531521],[2.555675,39.520046],[2.544932,39.492987],[2.520193,39.472846],[2.492686,39.470242],[2.473806,39.495795],[2.47169,39.497911],[2.469005,39.505886],[2.472179,39.512152],[2.480642,39.516221],[2.453949,39.537421],[2.445811,39.528876],[2.438162,39.525214],[2.431163,39.527696],[2.425955,39.537421],[2.398285,39.52497],[2.391856,39.523749],[2.382091,39.529242],[2.373709,39.547187],[2.355642,39.558661],[2.350759,39.576483],[2.351736,39.596747],[2.357677,39.611884],[2.429373,39.646674],[2.45045,39.650336],[2.468272,39.659369],[2.517589,39.700141],[2.5324,39.706366],[2.552419,39.708686],[2.569672,39.71308],[2.586599,39.723822],[2.617686,39.749701],[2.621918,39.754462],[2.62908,39.766872],[2.631358,39.770128],[2.635997,39.771023],[2.647472,39.769232],[2.651866,39.770128],[2.676036,39.789089],[2.67921,39.794013],[2.683604,39.79621],[2.703949,39.814154],[2.710623,39.818549],[2.717947,39.820136],[2.747406,39.83161],[2.761729,39.840522],[2.773204,39.849636],[2.784841,39.856716],[2.799653,39.859565],[2.803233,39.861599],[2.809581,39.870551],[2.813243,39.872585],[2.834158,39.871161],[2.843598,39.872585],[2.873057,39.88349],[2.933279,39.914496],[2.964122,39.920966],[3.020274,39.925157],[3.075694,39.936103],[3.179454,39.968777],[3.193126,39.955105],[3.198416,39.959296],[3.201345,39.960517],[3.214203,39.955105],[3.203624,39.949164],[3.168468,39.936387],[3.15561,39.934027],[3.14088,39.928087],[3.127452,39.916693],[3.115489,39.908759],[3.10434,39.91352],[3.096934,39.91352],[3.094737,39.881212],[3.130219,39.87641],[3.206798,39.893012],[3.206798,39.886827],[3.196788,39.881212],[3.195567,39.874538],[3.196462,39.867133],[3.193126,39.859565],[3.187185,39.854356],[3.181488,39.851386],[3.165212,39.845893],[3.133556,39.839545],[3.126313,39.831855],[3.124848,39.811103],[3.136485,39.788764],[3.162608,39.76911],[3.194835,39.754991],[3.223888,39.749701],[3.292491,39.749701],[3.309906,39.755072],[3.340343,39.778998],[3.354503,39.784369]]],[[[4.302908,39.925523],[4.307302,39.910549],[4.328787,39.88345],[4.337087,39.867174],[4.330333,39.867174],[4.326264,39.87344],[4.319753,39.879218],[4.311778,39.884182],[4.302908,39.8876],[4.300059,39.821763],[4.248139,39.816474],[4.177175,39.843329],[4.015066,39.925767],[3.981375,39.936062],[3.941335,39.936754],[3.869314,39.925523],[3.830658,39.936062],[3.83489,39.947984],[3.835704,39.962429],[3.839122,39.975572],[3.850515,39.983873],[3.842377,39.989407],[3.822032,39.995144],[3.812918,40.001207],[3.803396,40.01317],[3.803152,40.018134],[3.807058,40.023261],[3.8095,40.035386],[3.821869,40.047634],[3.891531,40.059556],[3.915457,40.051988],[4.011892,40.059556],[4.052013,40.058173],[4.063406,40.059556],[4.077566,40.064276],[4.09433,40.074734],[4.105072,40.079413],[4.107839,40.067613],[4.116791,40.059638],[4.139089,40.045925],[4.136974,40.043036],[4.134858,40.035712],[4.135427,40.028225],[4.142263,40.024807],[4.148529,40.027818],[4.155935,40.034654],[4.165782,40.045925],[4.163829,40.060574],[4.170502,40.064602],[4.176524,40.059231],[4.172618,40.045925],[4.17864,40.038845],[4.206716,40.024807],[4.212494,40.017239],[4.216889,40.0126],[4.227224,40.00491],[4.232677,40.002712],[4.247488,40.000393],[4.254568,39.997463],[4.264903,39.986396],[4.273367,39.969957],[4.27239,39.955349],[4.254568,39.949693],[4.270112,39.943752],[4.285899,39.944607],[4.298025,39.941962],[4.302908,39.925523]]]]}},{"type":"Feature","properties":{"featurecla":"Land","scalerank":0,"min_zoom":1},"geometry":{"type":"MultiPolygon","coordinates":[[[[14,38],[12.503193839700586,38],[12.504161,38.011217],[12.492931,38.02143],[12.523448,38.03144],[12.549653,38.054836],[12.576345,38.071723],[12.608409,38.062405],[12.638682,38.079495],[12.651622,38.091498],[12.656912,38.107367],[12.662446,38.116278],[12.676036,38.115871],[12.691905,38.112128],[12.7046,38.110826],[12.725352,38.125922],[12.723969,38.150336],[12.7199,38.175482],[12.731781,38.192776],[12.737804,38.180976],[12.74936,38.182074],[12.760916,38.180976],[12.766124,38.162665],[12.790782,38.117092],[12.81837,38.077948],[12.828787,38.069892],[12.856944,38.05858],[12.868907,38.051337],[12.86964,38.042548],[12.901134,38.028062],[12.944184,38.032864],[13.027354,38.062405],[13.061371,38.083482],[13.069672,38.091132],[13.0713,38.095526],[13.069591,38.101467],[13.068207,38.113959],[13.066173,38.123033],[13.056814,38.132717],[13.054698,38.141832],[13.089366,38.166002],[13.083751,38.174709],[13.08961,38.183336],[13.100922,38.19009],[13.112478,38.192776],[13.122406,38.190985],[13.156993,38.179674],[13.179373,38.176215],[13.207205,38.176093],[13.230317,38.184638],[13.239024,38.207017],[13.254405,38.202541],[13.265961,38.205268],[13.277029,38.210435],[13.296641,38.214423],[13.310232,38.21955],[13.318126,38.220649],[13.323253,38.217963],[13.325043,38.211656],[13.32602,38.204779],[13.32838,38.200181],[13.366222,38.179674],[13.371918,38.172797],[13.373302,38.140692],[13.37672,38.131293],[13.391368,38.103176],[13.51352,38.110541],[13.54127,38.094062],[13.539317,38.07685],[13.540863,38.067532],[13.547374,38.05622],[13.557465,38.04914],[13.587087,38.03913],[13.622406,38.015204],[13.651134,38.000963],[13.657231169450094,38],[13.874565582848291,38],[13.898285,38.004462],[13.912283,38.012641],[13.924815,38.021959],[13.938487,38.028876],[14,38.03729356842105],[14,38]]],[[[9.792247,40.556952],[9.820567,40.536363],[9.826427,40.529608],[9.826671,40.519599],[9.815196,40.502509],[9.812185,40.492377],[9.808767,40.470771],[9.800304,40.455512],[9.778087,40.427232],[9.761729,40.390692],[9.74936,40.377265],[9.727387,40.372016],[9.712413,40.3664],[9.700857,40.352973],[9.683116,40.324205],[9.670177,40.31269],[9.645518,40.296088],[9.634613,40.28262],[9.62615,40.263088],[9.624848,40.247748],[9.62908,40.205552],[9.631114,40.196194],[9.654633,40.144599],[9.66505,40.131578],[9.679698,40.126166],[9.687836,40.120673],[9.710216,40.09634],[9.73227,40.08393],[9.730317,40.068549],[9.69337,39.992906],[9.687266,39.961168],[9.696625,39.933783],[9.702485,39.937201],[9.709727,39.940334],[9.715668,39.940131],[9.717784,39.933783],[9.714529,39.924506],[9.708181,39.922187],[9.701427,39.922065],[9.696625,39.919501],[9.689464,39.906562],[9.684337,39.894232],[9.683849,39.882514],[9.689789,39.871731],[9.683116,39.871731],[9.683116,39.865546],[9.687755,39.863511],[9.691905,39.860053],[9.696625,39.858059],[9.696625,39.851874],[9.684255,39.839911],[9.675548,39.818915],[9.670258,39.793769],[9.668793,39.769273],[9.669932,39.756578],[9.675059,39.732082],[9.67628,39.718085],[9.674083,39.707994],[9.664806,39.691392],[9.662608,39.676825],[9.660411,39.670722],[9.655772,39.662909],[9.651134,39.652493],[9.648936,39.638983],[9.655772,39.59455],[9.653005,39.56684],[9.628429,39.501776],[9.644867,39.483954],[9.639008,39.45246],[9.614106,39.399359],[9.602061,39.355658],[9.600434,39.34101],[9.603526,39.326239],[9.611583,39.316555],[9.634613,39.303168],[9.634613,39.296942],[9.60727,39.289008],[9.581879,39.266303],[9.567556,39.238105],[9.573253,39.213813],[9.565603,39.205064],[9.568858,39.199286],[9.57602,39.193915],[9.579926,39.187079],[9.577891,39.179389],[9.568533,39.159369],[9.566417,39.149237],[9.557791,39.139716],[9.539561,39.134019],[9.522716,39.124905],[9.518565,39.10456],[9.510753,39.107978],[9.507091,39.111396],[9.507579,39.11636],[9.511892,39.124416],[9.496349,39.133612],[9.480724,39.135565],[9.465343,39.131903],[9.450369,39.124416],[9.442882,39.124416],[9.437999,39.133368],[9.428966,39.138617],[9.408702,39.146145],[9.383474,39.169257],[9.377696,39.172797],[9.367931,39.177151],[9.345063,39.196438],[9.336681,39.200751],[9.326182,39.202786],[9.312266,39.207913],[9.299571,39.214504],[9.292166,39.221259],[9.28533,39.213813],[9.271251,39.220526],[9.252452,39.225165],[9.216319,39.228013],[9.197439,39.221137],[9.180919,39.20718],[9.169688,39.193345],[9.166026,39.187079],[9.136892,39.194322],[9.113536,39.211493],[9.073009,39.248521],[9.063731,39.243069],[9.055512,39.247545],[9.047537,39.256008],[9.038748,39.262193],[9.024425,39.264838],[9.013927,39.263902],[9.012543,39.260565],[9.025727,39.256008],[9.025727,39.248521],[9.021007,39.240424],[9.026866,39.235745],[9.035167,39.232164],[9.037852,39.227118],[9.038748,39.228013],[9.050059,39.225653],[9.074962,39.229885],[9.079845,39.224595],[9.079845,39.216539],[9.078949,39.212348],[9.038585,39.179023],[9.026215,39.165229],[9.018321,39.146145],[9.015961,39.123847],[9.018728,39.103949],[9.024587,39.086127],[9.031993,39.06977],[9.037771,39.063666],[9.043793,39.058417],[9.044932,39.051256],[9.029307,39.03026],[9.018321,38.995307],[9.025727,38.995307],[9.015147,38.989651],[9.012055,38.990668],[9.004649,38.995307],[8.996349,38.982815],[8.894705,38.902289],[8.88795,38.899848],[8.877452,38.899075],[8.872406,38.896064],[8.861339,38.882066],[8.853282,38.877997],[8.841482,38.880561],[8.827891,38.888821],[8.805431,38.905951],[8.805431,38.885443],[8.791026,38.904446],[8.766612,38.920396],[8.739513,38.93065],[8.716563,38.932603],[8.694591,38.925238],[8.668793,38.91059],[8.651622,38.891547],[8.655121,38.871161],[8.640961,38.864325],[8.634776,38.871161],[8.642833,38.88996],[8.633149,38.895575],[8.615571,38.895941],[8.599864,38.899075],[8.599864,38.905951],[8.615001,38.923],[8.615489,38.947577],[8.603282,38.964911],[8.580089,38.960517],[8.572276,39.013617],[8.559581,39.056708],[8.552094,39.056708],[8.544281,39.051256],[8.520844,39.060858],[8.504405,39.062934],[8.509044,39.067939],[8.518077,39.083441],[8.504405,39.090888],[8.482758,39.08039],[8.482107,39.084174],[8.47755,39.090481],[8.473318,39.107367],[8.465099,39.119452],[8.454275,39.124905],[8.442231,39.11815],[8.437999,39.128485],[8.43865,39.153144],[8.435395,39.165961],[8.428396,39.173163],[8.418793,39.177314],[8.412608,39.175727],[8.415701,39.165961],[8.409516,39.169338],[8.40504,39.174384],[8.402354,39.181342],[8.401378,39.190172],[8.398692,39.201158],[8.392589,39.204047],[8.385509,39.204413],[8.380138,39.207587],[8.372813,39.222073],[8.371755,39.230618],[8.37672,39.23786],[8.426443,39.283271],[8.43214,39.301825],[8.415701,39.323676],[8.417247,39.339016],[8.382091,39.359687],[8.374034,39.378852],[8.378184,39.387926],[8.395681,39.404242],[8.401378,39.412421],[8.40504,39.427191],[8.403819,39.435858],[8.389496,39.462348],[8.385997,39.465522],[8.386892,39.469794],[8.394542,39.48135],[8.421886,39.508612],[8.435313,39.525214],[8.451671,39.558295],[8.46339,39.57685],[8.455903,39.584377],[8.463878,39.597886],[8.462169,39.617133],[8.449718,39.65884],[8.446788,39.704088],[8.442231,39.714667],[8.442231,39.721503],[8.446462,39.730862],[8.444021,39.757025],[8.446056,39.762519],[8.459727,39.760484],[8.468598,39.75495],[8.499766,39.716213],[8.516938,39.702135],[8.538259,39.696031],[8.565766,39.701077],[8.514496,39.71369],[8.504405,39.721503],[8.506847,39.738471],[8.519867,39.755439],[8.535492,39.770819],[8.545258,39.782945],[8.538585,39.782945],[8.535167,39.776068],[8.530528,39.770413],[8.524913,39.765815],[8.518077,39.762519],[8.529796,39.772528],[8.540782,39.789252],[8.548839,39.807196],[8.552094,39.820787],[8.555186,39.852688],[8.553559,39.863959],[8.545258,39.878567],[8.523448,39.898871],[8.494151,39.912421],[8.463064,39.91413],[8.435395,39.898993],[8.442231,39.892808],[8.445567,39.898098],[8.449962,39.899115],[8.455821,39.898505],[8.46339,39.898993],[8.451834,39.89289],[8.444672,39.883612],[8.435395,39.858059],[8.428722,39.865546],[8.437511,39.876776],[8.431,39.885199],[8.418305,39.892279],[8.403575,39.902899],[8.400727,39.90351],[8.398285,39.905341],[8.394542,39.912665],[8.393565,39.920478],[8.396332,39.926947],[8.399913,39.933173],[8.401378,39.940009],[8.393565,39.976874],[8.394542,39.98843],[8.406505,40.009833],[8.407074,40.022203],[8.394542,40.0362],[8.380138,40.030097],[8.377208,40.033759],[8.384532,40.041938],[8.401378,40.049872],[8.40447,40.049506],[8.434825,40.051011],[8.452403,40.056098],[8.459727,40.057318],[8.468598,40.062161],[8.479015,40.074164],[8.487315,40.089545],[8.490001,40.104478],[8.485118,40.118109],[8.467296,40.144721],[8.46339,40.163153],[8.459646,40.21601],[8.47641,40.262152],[8.476085,40.292141],[8.462901,40.314521],[8.441254,40.331448],[8.415701,40.345282],[8.408214,40.337836],[8.385997,40.351793],[8.383556,40.371772],[8.394542,40.423814],[8.390473,40.442328],[8.379893,40.468695],[8.365571,40.492133],[8.349864,40.502346],[8.331716,40.510688],[8.323904,40.530829],[8.319591,40.555609],[8.312022,40.57807],[8.291515,40.595364],[8.267345,40.594062],[8.216319,40.570624],[8.195974,40.57807],[8.205333,40.597805],[8.216319,40.612209],[8.19337,40.617499],[8.176606,40.606594],[8.166189,40.586412],[8.161794,40.563788],[8.153087,40.577786],[8.147309,40.593207],[8.140636,40.619045],[8.140636,40.62519],[8.157725,40.63227],[8.173839,40.641588],[8.185313,40.656562],[8.188487,40.680487],[8.191091,40.680406],[8.195567,40.685289],[8.197439,40.69123],[8.192149,40.694159],[8.178966,40.69477],[8.173839,40.696967],[8.167979,40.701606],[8.153331,40.719713],[8.145844,40.72602],[8.1338,40.728909],[8.209646,40.865424],[8.215343,40.881415],[8.216319,40.899604],[8.209727,40.914455],[8.192149,40.92064],[8.178884,40.928168],[8.182302,40.945299],[8.193044,40.963772],[8.202159,40.975287],[8.209646,40.975287],[8.212576,40.963446],[8.219981,40.962307],[8.229015,40.962551],[8.236176,40.954779],[8.235525,40.946479],[8.231619,40.934516],[8.229259,40.921576],[8.233165,40.910102],[8.277843,40.865424],[8.310232,40.850653],[8.421886,40.838772],[8.477875,40.826158],[8.500987,40.824449],[8.520518,40.826972],[8.598399,40.852973],[8.618337,40.866156],[8.634288,40.881578],[8.640961,40.89647],[8.709158,40.92064],[8.733897,40.921291],[8.751231,40.919135],[8.764415,40.913804],[8.82252,40.947333],[8.83961,40.961615],[8.875336,41.008124],[8.88795,41.016262],[8.885916,41.020087],[8.885916,41.021226],[8.885265,41.021796],[8.881114,41.023668],[8.913097,41.03266],[8.922699,41.03677],[8.929454,41.043647],[8.940115,41.061184],[8.9463,41.064643],[8.958751,41.070014],[8.975759,41.082668],[8.990733,41.097357],[9.005544,41.121894],[9.02475,41.128852],[9.093028,41.135199],[9.107758,41.139472],[9.13559,41.160305],[9.141856,41.152777],[9.157563,41.168891],[9.163422,41.184149],[9.162852,41.225409],[9.171072,41.242906],[9.189952,41.251125],[9.212413,41.255805],[9.230642,41.262641],[9.232677,41.253567],[9.238292,41.248847],[9.246918,41.247748],[9.257823,41.249661],[9.268077,41.23664],[9.267426,41.201972],[9.278331,41.195014],[9.274669,41.19953],[9.273611,41.205146],[9.274913,41.212388],[9.278331,41.221747],[9.28533,41.221747],[9.289317,41.208726],[9.288341,41.205756],[9.28533,41.201239],[9.28533,41.195014],[9.299571,41.196479],[9.305431,41.197943],[9.312511,41.201239],[9.31658,41.196479],[9.333018,41.187567],[9.335216,41.211656],[9.352061,41.207261],[9.388194,41.180732],[9.388194,41.187567],[9.396658,41.183905],[9.404063,41.181708],[9.412283,41.180732],[9.422374,41.180732],[9.422374,41.174506],[9.417003,41.171454],[9.414317,41.168199],[9.41212,41.164537],[9.408702,41.160305],[9.420177,41.15644],[9.426606,41.149237],[9.432791,41.140774],[9.442882,41.132961],[9.437022,41.125434],[9.436778,41.115383],[9.442882,41.091986],[9.454112,41.111965],[9.46046,41.12051],[9.470063,41.126125],[9.466807,41.130683],[9.465099,41.134426],[9.462413,41.1376],[9.456554,41.140367],[9.469086,41.146186],[9.481456,41.145575],[9.494395,41.14232],[9.508067,41.140367],[9.513927,41.1435],[9.518403,41.148668],[9.523936,41.149726],[9.532237,41.140367],[9.52475,41.132961],[9.534353,41.128119],[9.540782,41.12287],[9.546153,41.120917],[9.552745,41.126125],[9.559581,41.126125],[9.561209,41.121812],[9.561778,41.12108],[9.562999,41.121243],[9.566417,41.11933],[9.565115,41.107123],[9.562266,41.097113],[9.556407,41.087836],[9.545909,41.077704],[9.543793,41.082506],[9.540782,41.087348],[9.539073,41.091986],[9.521251,41.031684],[9.511892,41.016262],[9.532237,41.016262],[9.52475,41.030504],[9.543142,41.036933],[9.55421,41.034613],[9.557628,41.025051],[9.552745,41.009467],[9.557791,41.009426],[9.558604,41.011054],[9.558279,41.013617],[9.559581,41.016262],[9.565684,41.010932],[9.568614,41.009508],[9.573253,41.009467],[9.588145,41.020697],[9.615733,41.019599],[9.644298,41.011664],[9.662608,41.002631],[9.651215,40.991116],[9.635997,40.992377],[9.61964,40.998765],[9.604259,41.002631],[9.587576,40.995795],[9.58253,40.979926],[9.578868,40.961982],[9.566417,40.948635],[9.571137,40.934882],[9.557465,40.93122],[9.511892,40.934312],[9.511241,40.929389],[9.512543,40.927965],[9.504242,40.926907],[9.511974,40.915188],[9.52003,40.915025],[9.528982,40.919257],[9.539073,40.92064],[9.549327,40.917222],[9.567231,40.908393],[9.573253,40.906399],[9.592784,40.909898],[9.607677,40.917873],[9.622569,40.923774],[9.6421,40.92064],[9.637218,40.911566],[9.631521,40.904853],[9.623871,40.900702],[9.614106,40.899604],[9.614106,40.893378],[9.650076,40.879462],[9.655772,40.876044],[9.657725,40.863959],[9.663259,40.858222],[9.671723,40.85871],[9.683116,40.865424],[9.689789,40.855862],[9.699392,40.850043],[9.710948,40.846869],[9.723969,40.844916],[9.691091,40.836249],[9.681,40.829779],[9.689789,40.817043],[9.689789,40.810777],[9.67449,40.81391],[9.661794,40.809027],[9.657888,40.799872],[9.668793,40.790351],[9.66977,40.801459],[9.675792,40.788642],[9.703949,40.759426],[9.710297,40.745592],[9.714203,40.72724],[9.744477,40.680487],[9.748302,40.667222],[9.753184,40.605292],[9.756521,40.59516],[9.761567,40.587348],[9.768077,40.584296],[9.781912,40.581977],[9.785818,40.575873],[9.786876,40.567125],[9.792247,40.556952]]],[[[8.565766,42.208564],[8.574067,42.219916],[8.565766,42.225735],[8.552419,42.22899],[8.545258,42.232856],[8.54949,42.242255],[8.559906,42.24433],[8.586274,42.243354],[8.593761,42.246283],[8.601329,42.250678],[8.61085,42.254625],[8.651134,42.260403],[8.664724,42.264879],[8.675059,42.270657],[8.680837,42.272773],[8.685232,42.271918],[8.687755,42.272935],[8.688731,42.280951],[8.674001,42.289496],[8.672048,42.291164],[8.634776,42.304836],[8.632335,42.308661],[8.629649,42.315253],[8.625173,42.319159],[8.611095,42.310045],[8.605317,42.310452],[8.60141,42.314765],[8.599864,42.321926],[8.604747,42.325588],[8.634776,42.338935],[8.612804,42.352444],[8.591563,42.351142],[8.552094,42.338935],[8.559581,42.346381],[8.553477,42.354885],[8.549653,42.36579],[8.549083,42.377102],[8.552094,42.386705],[8.560802,42.381659],[8.570486,42.381781],[8.5796,42.385932],[8.586274,42.392971],[8.598643,42.3876],[8.602387,42.391913],[8.603526,42.400336],[8.60727,42.407213],[8.612071,42.411811],[8.614024,42.416246],[8.618663,42.419582],[8.65089,42.423285],[8.659516,42.429877],[8.661632,42.439765],[8.661388,42.45189],[8.672374,42.464423],[8.676768,42.47248],[8.672048,42.476142],[8.659679,42.477118],[8.657074,42.480048],[8.659353,42.484361],[8.667491,42.509711],[8.680431,42.521064],[8.697602,42.527004],[8.716563,42.530707],[8.710785,42.540107],[8.716319,42.561998],[8.709158,42.571723],[8.709158,42.579169],[8.71697,42.576117],[8.719737,42.575995],[8.720876,42.574123],[8.723481,42.565497],[8.740001,42.572333],[8.750662,42.568793],[8.759613,42.561754],[8.771251,42.558051],[8.786957,42.561998],[8.798839,42.571763],[8.807465,42.58511],[8.812836,42.599595],[8.805431,42.606431],[8.843028,42.608059],[8.906505,42.632473],[9.018321,42.650133],[9.049978,42.662177],[9.052989,42.681586],[9.107107,42.725898],[9.117849,42.732001],[9.141449,42.735012],[9.165212,42.735175],[9.176036,42.732815],[9.185069,42.733385],[9.236827,42.722561],[9.257823,42.713935],[9.264659,42.708889],[9.270844,42.702216],[9.276134,42.694159],[9.28533,42.67475],[9.292166,42.67475],[9.327891,42.720038],[9.34254,42.749091],[9.333018,42.770941],[9.340994,42.790107],[9.33546,42.807603],[9.321788,42.82392],[9.305675,42.83926],[9.333018,42.867133],[9.332856,42.8758],[9.326345,42.885321],[9.326182,42.893785],[9.330251,42.903551],[9.336925,42.910386],[9.360199,42.928616],[9.356781,42.933539],[9.355724,42.93651],[9.356944,42.94066],[9.360199,42.949123],[9.349946,42.957221],[9.343435,42.97309],[9.341807,42.990668],[9.34669,43.00373],[9.363048,43.011542],[9.404307,43.011664],[9.422374,43.017401],[9.435557,43.00373],[9.444509,42.997992],[9.464041,42.990058],[9.464041,42.982611],[9.455577,42.974555],[9.453868,42.963813],[9.458751,42.952338],[9.470063,42.942288],[9.465505,42.923529],[9.484386,42.832424],[9.482758,42.802314],[9.450369,42.708889],[9.451427,42.696723],[9.449392,42.682603],[9.450369,42.653632],[9.449067,42.651068],[9.446056,42.648586],[9.44337,42.64525],[9.442882,42.64057],[9.445323,42.637885],[9.449962,42.635728],[9.4546,42.634589],[9.456554,42.634426],[9.459239,42.625434],[9.461681,42.619818],[9.461436,42.614569],[9.456554,42.606431],[9.46461,42.60163],[9.468028,42.594957],[9.470714,42.587226],[9.476899,42.579169],[9.484874,42.574449],[9.511892,42.565497],[9.509125,42.579983],[9.504731,42.586615],[9.489594,42.612616],[9.518565,42.580959],[9.528087,42.563544],[9.532237,42.544379],[9.53004,42.486314],[9.533376,42.456244],[9.545909,42.435126],[9.539887,42.422065],[9.535411,42.408189],[9.532725,42.392524],[9.532237,42.373725],[9.536957,42.353176],[9.555431,42.314276],[9.559581,42.294582],[9.552257,42.170152],[9.559581,42.146552],[9.556895,42.138251],[9.554942,42.120836],[9.552745,42.113023],[9.545584,42.10399],[9.518565,42.08511],[9.507823,42.072211],[9.492442,42.047756],[9.423839,41.973538],[9.408702,41.962226],[9.403168,41.952948],[9.402843,41.917426],[9.394298,41.847968],[9.403005,41.779731],[9.401622,41.706448],[9.398611,41.701483],[9.391124,41.699042],[9.381196,41.692694],[9.372244,41.683905],[9.367035,41.674221],[9.380707,41.674221],[9.37794,41.65644],[9.373057,41.645168],[9.363617,41.640041],[9.353201,41.640815],[9.345225,41.640326],[9.342133,41.63467],[9.34669,41.619574],[9.333263,41.624457],[9.318207,41.627143],[9.303722,41.627834],[9.292166,41.62641],[9.293956,41.617621],[9.284434,41.607652],[9.278575,41.598375],[9.292166,41.59162],[9.325043,41.601955],[9.345063,41.604478],[9.354177,41.595404],[9.350597,41.581204],[9.341075,41.569281],[9.326671,41.561103],[9.309093,41.558173],[9.299653,41.55329],[9.292166,41.542914],[9.281993,41.533271],[9.264659,41.530829],[9.268728,41.523749],[9.269867,41.516791],[9.268728,41.509955],[9.264659,41.502875],[9.276215,41.499416],[9.279145,41.491645],[9.27475,41.482856],[9.264659,41.476142],[9.270844,41.468736],[9.255219,41.463609],[9.228038,41.450019],[9.210704,41.448228],[9.210704,41.440863],[9.220063,41.435045],[9.223318,41.427314],[9.219981,41.419623],[9.210704,41.41352],[9.210704,41.407294],[9.222016,41.410956],[9.237966,41.422268],[9.250336,41.427802],[9.246593,41.412909],[9.23878,41.395901],[9.230154,41.380927],[9.223155,41.372504],[9.206716,41.365912],[9.193858,41.369127],[9.169119,41.386176],[9.153331,41.391343],[9.122244,41.394965],[9.096446,41.40351],[9.10727,41.429267],[9.112153,41.432563],[9.121349,41.434638],[9.105154,41.445502],[9.080903,41.453192],[9.06658,41.4619],[9.079845,41.476142],[9.079845,41.482367],[9.068207,41.479478],[9.038748,41.4619],[9.031993,41.468736],[9.03419,41.470893],[9.035411,41.471625],[9.036632,41.472846],[9.038748,41.476142],[9.028087,41.473822],[9.024099,41.472113],[9.018321,41.468736],[9.011485,41.476142],[9.000987,41.483059],[8.975597,41.489081],[8.95102,41.491889],[8.93572,41.489203],[8.924815,41.49494],[8.916759,41.501654],[8.906912,41.50731],[8.883637,41.511176],[8.881114,41.514838],[8.879161,41.519355],[8.873709,41.523383],[8.864268,41.525336],[8.856293,41.525336],[8.848399,41.526109],[8.83961,41.530829],[8.853282,41.537665],[8.853282,41.54385],[8.840587,41.547268],[8.833344,41.550727],[8.823904,41.549954],[8.809906,41.55268],[8.797211,41.557074],[8.791759,41.561225],[8.796397,41.580552],[8.793224,41.587307],[8.778087,41.59162],[8.785411,41.604682],[8.792003,41.625149],[8.801768,41.639065],[8.819021,41.632636],[8.872569,41.651068],[8.881114,41.657131],[8.885753,41.670885],[8.896983,41.677924],[8.910655,41.683824],[8.922699,41.694648],[8.899181,41.695461],[8.836436,41.70893],[8.812348,41.709296],[8.788829,41.712551],[8.776134,41.722398],[8.784923,41.742499],[8.760102,41.742662],[8.719086,41.730699],[8.695567,41.729438],[8.69809,41.733059],[8.702973,41.742499],[8.688731,41.741767],[8.677989,41.744086],[8.667979,41.747504],[8.655121,41.749905],[8.668224,41.754869],[8.6963,41.758205],[8.709158,41.763577],[8.71754,41.77204],[8.722016,41.782416],[8.720225,41.791693],[8.709158,41.797065],[8.709158,41.804511],[8.731944,41.804592],[8.752289,41.809801],[8.784923,41.824408],[8.78004,41.83393],[8.772309,41.840399],[8.76238,41.844143],[8.750824,41.845526],[8.783702,41.853583],[8.791759,41.859117],[8.789317,41.861314],[8.785818,41.867987],[8.781749,41.873684],[8.778087,41.872789],[8.79005,41.886949],[8.791759,41.887112],[8.794607,41.892157],[8.803396,41.900539],[8.805431,41.906928],[8.803071,41.907457],[8.791759,41.913764],[8.785981,41.922838],[8.781423,41.928778],[8.775076,41.932318],[8.764415,41.934272],[8.744395,41.932807],[8.710297,41.918769],[8.688731,41.913764],[8.647634,41.911811],[8.629893,41.908637],[8.614268,41.900784],[8.60727,41.913764],[8.618663,41.930487],[8.614431,41.944078],[8.586274,41.96898],[8.635509,41.972642],[8.65504,41.978705],[8.668793,41.996324],[8.656098,42.002875],[8.664561,42.014472],[8.684337,42.02558],[8.706065,42.030463],[8.711274,42.033271],[8.738048,42.043931],[8.743419,42.044135],[8.744965,42.056586],[8.739106,42.063422],[8.723481,42.072089],[8.706228,42.100491],[8.699229,42.10932],[8.688813,42.111151],[8.660899,42.105455],[8.655121,42.10932],[8.647716,42.122016],[8.629568,42.130072],[8.6067,42.133734],[8.586274,42.13349],[8.591075,42.14289],[8.593761,42.146552],[8.586274,42.151435],[8.578136,42.154202],[8.569102,42.154975],[8.559581,42.153998],[8.569672,42.155585],[8.577891,42.158759],[8.593761,42.16706],[8.593761,42.174506],[8.565766,42.174506],[8.565766,42.181301],[8.577647,42.184882],[8.581798,42.194525],[8.57781,42.204413],[8.565766,42.208564]]]]}},{"type":"Feature","properties":{"featurecla":null,"scalerank":null,"min_zoom":null},"geometry":{"type":"MultiPolygon","coordinates":[[[[9.727061,40.874132],[9.734141,40.876329],[9.74464,40.869167],[9.739594,40.86046],[9.73406,40.8581],[9.71933,40.863756],[9.713878,40.873684],[9.727061,40.874132]]],[[[9.740082,40.912299],[9.700125,40.890489],[9.691335,40.888292],[9.685151,40.891099],[9.679779,40.891303],[9.676036,40.890204],[9.677501,40.892605],[9.733897,40.92475],[9.736339,40.924302],[9.739268,40.919298],[9.740082,40.912299]]],[[[12.976492,40.93537],[12.982188,40.937567],[12.989594,40.93651],[12.991791,40.933173],[12.980398,40.928371],[12.968598,40.91946],[12.960948,40.903225],[12.963227,40.898017],[12.966319,40.895453],[12.966482,40.893052],[12.964203,40.888658],[12.958344,40.881985],[12.951996,40.881537],[12.948904,40.885688],[12.949962,40.890896],[12.947846,40.895575],[12.942068,40.899807],[12.948497,40.917914],[12.954356,40.92178],[12.964529,40.925482],[12.966319,40.927232],[12.966563,40.930284],[12.96811,40.931952],[12.971853,40.932847],[12.976492,40.93537]]],[[[12.850434,40.933987],[12.851573,40.941392],[12.854828,40.944688],[12.853119,40.947984],[12.85727,40.950019],[12.860444,40.94831],[12.860688,40.938788],[12.861664,40.930691],[12.850434,40.926011],[12.849132,40.928209],[12.850434,40.933987]]],[[[13.049978,40.966946],[13.053559,40.974351],[13.062185,40.975531],[13.060964,40.965237],[13.053477,40.965237],[13.049978,40.966946]]],[[[9.595958,41.076361],[9.600759,41.077989],[9.606375,41.079413],[9.606049,41.076321],[9.604991,41.071194],[9.602631,41.068671],[9.601573,41.069444],[9.597667,41.070421],[9.596121,41.072943],[9.595958,41.076361]]],[[[9.405772,41.202623],[9.408214,41.207424],[9.417491,41.200426],[9.407807,41.185126],[9.40504,41.188463],[9.402354,41.190212],[9.395518,41.189602],[9.394379,41.195095],[9.398041,41.198839],[9.405772,41.202623]]],[[[9.150401,41.243842],[9.158376,41.242174],[9.156098,41.238105],[9.156993,41.237454],[9.152761,41.233547],[9.146739,41.230007],[9.137462,41.240871],[9.141612,41.246446],[9.146658,41.243801],[9.150401,41.243842]]],[[[9.337901,41.252224],[9.34254,41.251614],[9.353038,41.247829],[9.350759,41.232204],[9.342214,41.228135],[9.340343,41.229112],[9.337983,41.22899],[9.335378,41.230292],[9.331554,41.233588],[9.329682,41.237576],[9.332856,41.2508],[9.337901,41.252224]]],[[[9.344656,41.274807],[9.337576,41.27794],[9.331065,41.281033],[9.334972,41.28559],[9.350597,41.288723],[9.351248,41.276109],[9.344656,41.274807]]],[[[9.375255,41.292263],[9.371837,41.291856],[9.36907,41.293484],[9.364757,41.287909],[9.358246,41.296902],[9.361664,41.297512],[9.364594,41.3015],[9.372406,41.304918],[9.376801,41.307807],[9.37794,41.303453],[9.380056,41.300442],[9.378917,41.295844],[9.375255,41.292263]]],[[[9.345876,41.304755],[9.353282,41.299343],[9.354177,41.292873],[9.346934,41.293647],[9.337006,41.294501],[9.336599,41.297065],[9.33489,41.29975],[9.330903,41.304714],[9.334972,41.308336],[9.337983,41.307603],[9.340017,41.307196],[9.34254,41.30622],[9.345876,41.304755]]],[[[9.254568,41.34219],[9.254649,41.338609],[9.257579,41.335517],[9.256928,41.331529],[9.247244,41.337714],[9.249929,41.343533],[9.254568,41.34219]]],[[[9.264822,41.372138],[9.264334,41.36636],[9.27003,41.367621],[9.268891,41.36461],[9.265147,41.363593],[9.263438,41.362698],[9.262625,41.360785],[9.257253,41.363593],[9.253835,41.364651],[9.250418,41.365465],[9.251557,41.371161],[9.260834,41.371853],[9.264822,41.372138]]],[[[11.104666,42.263332],[11.110525,42.261217],[11.112478,42.252875],[11.108246,42.255235],[11.10491,42.255439],[11.102387,42.254299],[11.10491,42.245673],[11.106456,42.237779],[11.095225,42.243272],[11.093842,42.246039],[11.091319,42.251776],[11.09197,42.256496],[11.093842,42.260159],[11.100027,42.260484],[11.104666,42.263332]]],[[[6.489431,43.053087],[6.501557,43.055894],[6.506602,43.051622],[6.505789,43.046169],[6.490164,43.044298],[6.4817,43.038316],[6.466482,43.019355],[6.448253,43.014675],[6.439464,43.008857],[6.432953,43.00967],[6.431814,43.019477],[6.434662,43.027208],[6.455333,43.032782],[6.463227,43.043931],[6.472667,43.050686],[6.489431,43.053087]]],[[[9.908132,43.446601],[9.91269,43.444525],[9.915701,43.442939],[9.915375,43.43537],[9.908458,43.426907],[9.894216,43.432522],[9.897634,43.443427],[9.903005,43.444159],[9.908132,43.446601]]],[[[7.044295,43.52375],[7.048963,43.524107],[7.064776,43.519104],[7.073078,43.515795],[7.068979,43.514618],[7.057848,43.515865],[7.048862,43.515122],[7.036685,43.51646],[7.032387,43.522494],[7.03972,43.521844],[7.044295,43.52375]]],[[[13.773855,44.915269],[13.778331,44.910793],[13.779552,44.905015],[13.77768,44.902493],[13.765066,44.901842],[13.761078,44.90351],[13.7588,44.900662],[13.758067,44.89407],[13.756114,44.889919],[13.752045,44.88699],[13.747325,44.8876],[13.746186,44.89175],[13.747,44.895982],[13.745372,44.900946],[13.747,44.904486],[13.750743,44.907701],[13.750092,44.913153],[13.744721,44.917711],[13.73699,44.919989],[13.735444,44.923936],[13.740977,44.925767],[13.747895,44.925116],[13.758393,44.920396],[13.761648,44.920681],[13.773855,44.915269]]],[[[12.402599,45.464586],[12.414073,45.47309],[12.418386,45.468736],[12.408783,45.45661],[12.396088,45.449408],[12.385346,45.445705],[12.375173,45.453803],[12.389822,45.457668],[12.397309,45.460028],[12.402599,45.464586]]]]}}]}
