{"type":"FeatureCollection","name":"ne_10m_airports_major","features":[{"type":"Feature","properties":{"name":"Marseille Provence Airport","iata_code":"MRS","gps_code":"LFML","scalerank":6},"geometry":{"type":"Point","coordinates":[5.221379,43.44106]}},{"type":"Feature","properties":{"name":"Hong Kong Int'l","iata_code":"HKG","gps_code":"VHHH","scalerank":2},"geometry":{"type":"Point","coordinates":[113.935016,22.315333]}},{"type":"Feature","properties":{"name":"Taoyuan","iata_code":"TPE","gps_code":"RCTP","scalerank":2},"geometry":{"type":"Point","coordinates":[121.23137,25.076741]}},{"type":"Feature","properties":{"name":"Schiphol","iata_code":"AMS","gps_code":"EHAM","scalerank":2},"geometry":{"type":"Point","coordinates":[4.764377,52.308932]}},{"type":"Feature","properties":{"name":"Singapore Changi","iata_code":"SIN","gps_code":"WSSS","scalerank":2},"geometry":{"type":"Point","coordinates":[103.986414,1.356161]}},{"type":"Feature","properties":{"name":"London Heathrow","iata_code":"LHR","gps_code":"EGLL","scalerank":2},"geometry":{"type":"Point","coordinates":[-0.453157,51.470996]}},{"type":"Feature","properties":{"name":"Auckland Int'l","iata_code":"AKL","gps_code":"NZAA","scalerank":2},"geometry":{"type":"Point","coordinates":[174.791719,-37.006355]}},{"type":"Feature","properties":{"name":"Anchorage Int'l","iata_code":"ANC","gps_code":"PALH","scalerank":2},"geometry":{"type":"Point","coordinates":[-149.981725,61.172894]}},{"type":"Feature","properties":{"name":"Hartsfield-Jackson Atlanta Int'l","iata_code":"ATL","gps_code":"KATL","scalerank":2},"geometry":{"type":"Point","coordinates":[-84.425397,33.640529]}},{"type":"Feature","properties":{"name":"Beijing Capital","iata_code":"PEK","gps_code":"ZBAA","scalerank":2},"geometry":{"type":"Point","coordinates":[116.588174,40.078766]}},{"type":"Feature","properties":{"name":"Eldorado Int'l","iata_code":"BOG","gps_code":"SKBO","scalerank":2},"geometry":{"type":"Point","coordinates":[-74.143372,4.698833]}},{"type":"Feature","properties":{"name":"Chhatrapati Shivaji Int'l","iata_code":"BOM","gps_code":"VABB","scalerank":2},"geometry":{"type":"Point","coordinates":[72.874564,19.095102]}},{"type":"Feature","properties":{"name":"Gen E L Logan Int'l","iata_code":"BOS","gps_code":"KBOS","scalerank":2},"geometry":{"type":"Point","coordinates":[-71.016407,42.366566]}},{"type":"Feature","properties":{"name":"Baltimore-Washington Int'l Thurgood Marshall","iata_code":"BWI","gps_code":"KBWI","scalerank":2},"geometry":{"type":"Point","coordinates":[-76.668643,39.179394]}},{"type":"Feature","properties":{"name":"Cairo Int'l","iata_code":"CAI","gps_code":"HECA","scalerank":2},"geometry":{"type":"Point","coordinates":[31.399743,30.11199]}},{"type":"Feature","properties":{"name":"Casablanca-Anfa","iata_code":"CAS","gps_code":"GMMC","scalerank":2},"geometry":{"type":"Point","coordinates":[-7.663219,33.562788]}},{"type":"Feature","properties":{"name":"Simón Bolivar Int'l","iata_code":"CCS","gps_code":"SVMI","scalerank":2},"geometry":{"type":"Point","coordinates":[-67.005749,10.597355]}},{"type":"Feature","properties":{"name":"Cape Town Int'l","iata_code":"CPT","gps_code":"FACT","scalerank":2},"geometry":{"type":"Point","coordinates":[18.597657,-33.970447]}},{"type":"Feature","properties":{"name":"Chengdushuang Liu","iata_code":"CTU","gps_code":"ZUUU","scalerank":2},"geometry":{"type":"Point","coordinates":[103.956136,30.581071]}},{"type":"Feature","properties":{"name":"Indira Gandhi Int'l","iata_code":"DEL","gps_code":"VIDP","scalerank":2},"geometry":{"type":"Point","coordinates":[77.087836,28.559204]}},{"type":"Feature","properties":{"name":"Denver Int'l","iata_code":"DEN","gps_code":"KDEN","scalerank":2},"geometry":{"type":"Point","coordinates":[-104.673797,39.849461]}},{"type":"Feature","properties":{"name":"Dallas-Ft. Worth Int'l","iata_code":"DFW","gps_code":"KDFW","scalerank":2},"geometry":{"type":"Point","coordinates":[-97.040371,32.900151]}},{"type":"Feature","properties":{"name":"Don Muang Int'l","iata_code":"DMK","gps_code":"VTBD","scalerank":2},"geometry":{"type":"Point","coordinates":[100.602579,13.920277]}},{"type":"Feature","properties":{"name":"Dubai Int'l","iata_code":"DXB","gps_code":"OMDB","scalerank":2},"geometry":{"type":"Point","coordinates":[55.354077,25.252566]}},{"type":"Feature","properties":{"name":"Newark Int'l","iata_code":"EWR","gps_code":"KEWR","scalerank":2},"geometry":{"type":"Point","coordinates":[-74.177147,40.69048]}},{"type":"Feature","properties":{"name":"Ministro Pistarini Int'l","iata_code":"EZE","gps_code":"SAEZ","scalerank":2},"geometry":{"type":"Point","coordinates":[-58.541246,-34.813647]}},{"type":"Feature","properties":{"name":"Fort Lauderdale Hollywood Int'l","iata_code":"FLL","gps_code":"KFLL","scalerank":2},"geometry":{"type":"Point","coordinates":[-80.145259,26.07171]}},{"type":"Feature","properties":{"name":"George Bush Intercontinental","iata_code":"IAH","gps_code":"KIAH","scalerank":2},"geometry":{"type":"Point","coordinates":[-95.333705,29.986591]}},{"type":"Feature","properties":{"name":"Atatürk Hava Limani","iata_code":"IST","gps_code":"LTBA","scalerank":2},"geometry":{"type":"Point","coordinates":[28.819549,40.977839]}},{"type":"Feature","properties":{"name":"OR Tambo Int'l","iata_code":"JNB","gps_code":"FAJS","scalerank":2},"geometry":{"type":"Point","coordinates":[28.231989,-26.132095]}},{"type":"Feature","properties":{"name":"Juneau Int'l","iata_code":"JNU","gps_code":"PAJN","scalerank":2},"geometry":{"type":"Point","coordinates":[-134.583573,58.358944]}},{"type":"Feature","properties":{"name":"Los Angeles Int'l","iata_code":"LAX","gps_code":"KLAX","scalerank":2},"geometry":{"type":"Point","coordinates":[-118.402469,33.944174]}},{"type":"Feature","properties":{"name":"Linate","iata_code":"LIN","gps_code":"LIML","scalerank":2},"geometry":{"type":"Point","coordinates":[9.279966,45.460394]}},{"type":"Feature","properties":{"name":"Melbourne Int'l","iata_code":"MEL","gps_code":"YMML","scalerank":2},"geometry":{"type":"Point","coordinates":[144.848998,-37.669941]}},{"type":"Feature","properties":{"name":"Lic Benito Juarez Int'l","iata_code":"MEX","gps_code":"MMMX","scalerank":2},"geometry":{"type":"Point","coordinates":[-99.082608,19.43547]}},{"type":"Feature","properties":{"name":"Ninoy Aquino Int'l","iata_code":"MNL","gps_code":"RPLL","scalerank":2},"geometry":{"type":"Point","coordinates":[121.004122,14.506832]}},{"type":"Feature","properties":{"name":"Jomo Kenyatta Int'l","iata_code":"NBO","gps_code":"HKJK","scalerank":2},"geometry":{"type":"Point","coordinates":[36.925089,-1.33053]}},{"type":"Feature","properties":{"name":"Honolulu Int'l","iata_code":"HNL","gps_code":"PHNL","scalerank":2},"geometry":{"type":"Point","coordinates":[-157.919783,21.332022]}},{"type":"Feature","properties":{"name":"Chicago O'Hare Int'l","iata_code":"ORD","gps_code":"KORD","scalerank":2},"geometry":{"type":"Point","coordinates":[-87.905134,41.976529]}},{"type":"Feature","properties":{"name":"King Khalid Int'l","iata_code":"RUH","gps_code":"OERK","scalerank":2},"geometry":{"type":"Point","coordinates":[46.701829,24.959032]}},{"type":"Feature","properties":{"name":"Arturo Merino Benitez Int'l","iata_code":"SCL","gps_code":"SCEL","scalerank":2},"geometry":{"type":"Point","coordinates":[-70.793686,-33.396834]}},{"type":"Feature","properties":{"name":"Seattle-Tacoma Int'l","iata_code":"SEA","gps_code":"KSEA","scalerank":2},"geometry":{"type":"Point","coordinates":[-122.30229,47.443582]}},{"type":"Feature","properties":{"name":"San Francisco Int'l","iata_code":"SFO","gps_code":"KSFO","scalerank":2},"geometry":{"type":"Point","coordinates":[-122.38347,37.617025]}},{"type":"Feature","properties":{"name":"Hongqiao","iata_code":"SHA","gps_code":"ZSSS","scalerank":2},"geometry":{"type":"Point","coordinates":[121.341184,31.187257]}},{"type":"Feature","properties":{"name":"Sheremtyevo","iata_code":"SVO","gps_code":"UUEE","scalerank":2},"geometry":{"type":"Point","coordinates":[37.415969,55.966447]}},{"type":"Feature","properties":{"name":"Toronto-Pearson Int'l","iata_code":"YYZ","gps_code":"CYYZ","scalerank":2},"geometry":{"type":"Point","coordinates":[-79.611419,43.68096]}},{"type":"Feature","properties":{"name":"Kingsford Smith","iata_code":"SYD","gps_code":"YSSY","scalerank":2},"geometry":{"type":"Point","coordinates":[151.166067,-33.936583]}},{"type":"Feature","properties":{"name":"Helsinki Vantaa","iata_code":"HEL","gps_code":"EFHK","scalerank":2},"geometry":{"type":"Point","coordinates":[24.968208,60.318716]}},{"type":"Feature","properties":{"name":"Charles de Gaulle Int'l","iata_code":"CDG","gps_code":"LFPG","scalerank":2},"geometry":{"type":"Point","coordinates":[2.541868,49.01442]}},{"type":"Feature","properties":{"name":"Berlin-Tegel Int'l","iata_code":"TXL","gps_code":"EDDT","scalerank":2},"geometry":{"type":"Point","coordinates":[13.290309,52.554429]}},{"type":"Feature","properties":{"name":"Vienna Schwechat Int'l","iata_code":"VIE","gps_code":"LOWW","scalerank":2},"geometry":{"type":"Point","coordinates":[16.560768,48.119756]}},{"type":"Feature","properties":{"name":"Frankfurt Int'l","iata_code":"FRA","gps_code":"EDDF","scalerank":2},"geometry":{"type":"Point","coordinates":[8.571823,50.050677]}},{"type":"Feature","properties":{"name":"Leonardo da Vinci Int'l","iata_code":"FCO","gps_code":"LIRF","scalerank":2},"geometry":{"type":"Point","coordinates":[12.250101,41.795079]}},{"type":"Feature","properties":{"name":"Osaka Int'l","iata_code":"ITM","gps_code":"RJOO","scalerank":2},"geometry":{"type":"Point","coordinates":[135.442475,34.790198]}},{"type":"Feature","properties":{"name":"Gimpo Int'l","iata_code":"GMP","gps_code":"RKSS","scalerank":2},"geometry":{"type":"Point","coordinates":[126.802393,37.557301]}},{"type":"Feature","properties":{"name":"Oslo Gardermoen","iata_code":"OSL","gps_code":"ENGM","scalerank":2},"geometry":{"type":"Point","coordinates":[11.099103,60.193578]}},{"type":"Feature","properties":{"name":"Juscelino Kubitschek Int'l","iata_code":"BSB","gps_code":"SBBR","scalerank":2},"geometry":{"type":"Point","coordinates":[-47.920789,-15.869999]}},{"type":"Feature","properties":{"name":"Congonhas Int'l","iata_code":"CGH","gps_code":"SBSP","scalerank":2},"geometry":{"type":"Point","coordinates":[-46.659116,-23.626859]}},{"type":"Feature","properties":{"name":"Rio de Janeiro-Antonio Carlos Jobim Int'l","iata_code":"GIG","gps_code":"SBGL","scalerank":2},"geometry":{"type":"Point","coordinates":[-43.248381,-22.812344]}},{"type":"Feature","properties":{"name":"Madrid Barajas","iata_code":"MAD","gps_code":"LEMD","scalerank":2},"geometry":{"type":"Point","coordinates":[-3.569027,40.468128]}},{"type":"Feature","properties":{"name":"Luis Muñoz Marin","iata_code":"SJU","gps_code":"TJSJ","scalerank":2},"geometry":{"type":"Point","coordinates":[-66.00423,18.438077]}},{"type":"Feature","properties":{"name":"Arlanda","iata_code":"ARN","gps_code":"ESSA","scalerank":2},"geometry":{"type":"Point","coordinates":[17.93073,59.65112]}},{"type":"Feature","properties":{"name":"Soekarno-Hatta Int'l","iata_code":"CGK","gps_code":"WIII","scalerank":2},"geometry":{"type":"Point","coordinates":[106.654296,-6.126603]}},{"type":"Feature","properties":{"name":"Eleftherios Venizelos Int'l","iata_code":"ATH","gps_code":"LGAV","scalerank":2},"geometry":{"type":"Point","coordinates":[23.947116,37.936233]}},{"type":"Feature","properties":{"name":"Tokyo Int'l","iata_code":"HND","gps_code":"RJTT","scalerank":2},"geometry":{"type":"Point","coordinates":[139.784046,35.549061]}},{"type":"Feature","properties":{"name":"Suvarnabhumi Airport","iata_code":"BKK","gps_code":"VTBS","scalerank":2},"geometry":{"type":"Point","coordinates":[100.75091,13.692612]}}],"bbox":[-157.919783,-37.669941,174.791719,61.172894]}
